<?xml version="1.0" encoding="UTF-8"?>
<gpx version="1.1" creator="oh-trail-map sample" xmlns="http://www.topografix.com/GPX/1/1">
  <metadata><name>Bukhansan Ridge Loop</name></metadata>
  <trk>
    <name>Bukhansan Ridge Loop</name>
    <trkseg>
      <trkpt lat="37.659000" lon="126.988369"><ele>240.0</ele><time>2026-05-17T08:30:00Z</time></trkpt>
      <trkpt lat="37.659121" lon="126.988367"><ele>240.6</ele><time>2026-05-17T08:30:22Z</time></trkpt>
      <trkpt lat="37.659243" lon="126.988363"><ele>239.6</ele><time>2026-05-17T08:30:44Z</time></trkpt>
      <trkpt lat="37.659364" lon="126.988357"><ele>242.3</ele><time>2026-05-17T08:31:06Z</time></trkpt>
      <trkpt lat="37.659486" lon="126.988348"><ele>240.8</ele><time>2026-05-17T08:31:28Z</time></trkpt>
      <trkpt lat="37.659607" lon="126.988337"><ele>244.1</ele><time>2026-05-17T08:31:50Z</time></trkpt>
      <trkpt lat="37.659728" lon="126.988323"><ele>244.0</ele><time>2026-05-17T08:32:12Z</time></trkpt>
      <trkpt lat="37.659849" lon="126.988306"><ele>246.2</ele><time>2026-05-17T08:32:34Z</time></trkpt>
      <trkpt lat="37.659969" lon="126.988287"><ele>248.5</ele><time>2026-05-17T08:32:56Z</time></trkpt>
      <trkpt lat="37.660090" lon="126.988265"><ele>249.3</ele><time>2026-05-17T08:33:18Z</time></trkpt>
      <trkpt lat="37.660210" lon="126.988241"><ele>253.6</ele><time>2026-05-17T08:33:40Z</time></trkpt>
      <trkpt lat="37.660330" lon="126.988214"><ele>253.9</ele><time>2026-05-17T08:34:02Z</time></trkpt>
      <trkpt lat="37.660450" lon="126.988185"><ele>258.9</ele><time>2026-05-17T08:34:24Z</time></trkpt>
      <trkpt lat="37.660569" lon="126.988153"><ele>260.4</ele><time>2026-05-17T08:34:46Z</time></trkpt>
      <trkpt lat="37.660688" lon="126.988119"><ele>264.4</ele><time>2026-05-17T08:35:08Z</time></trkpt>
      <trkpt lat="37.660807" lon="126.988082"><ele>268.3</ele><time>2026-05-17T08:35:30Z</time></trkpt>
      <trkpt lat="37.660925" lon="126.988043"><ele>270.8</ele><time>2026-05-17T08:35:52Z</time></trkpt>
      <trkpt lat="37.661043" lon="126.988001"><ele>276.7</ele><time>2026-05-17T08:36:14Z</time></trkpt>
      <trkpt lat="37.661160" lon="126.987957"><ele>278.6</ele><time>2026-05-17T08:36:36Z</time></trkpt>
      <trkpt lat="37.661277" lon="126.987910"><ele>285.3</ele><time>2026-05-17T08:36:58Z</time></trkpt>
      <trkpt lat="37.661393" lon="126.987861"><ele>288.2</ele><time>2026-05-17T08:37:20Z</time></trkpt>
      <trkpt lat="37.661509" lon="126.987809"><ele>293.9</ele><time>2026-05-17T08:37:42Z</time></trkpt>
      <trkpt lat="37.661624" lon="126.987755"><ele>299.1</ele><time>2026-05-17T08:38:04Z</time></trkpt>
      <trkpt lat="37.661739" lon="126.987699"><ele>303.2</ele><time>2026-05-17T08:38:26Z</time></trkpt>
      <trkpt lat="37.661853" lon="126.987640"><ele>310.6</ele><time>2026-05-17T08:38:48Z</time></trkpt>
      <trkpt lat="37.661966" lon="126.987579"><ele>313.9</ele><time>2026-05-17T08:39:10Z</time></trkpt>
      <trkpt lat="37.662079" lon="126.987515"><ele>322.0</ele><time>2026-05-17T08:39:32Z</time></trkpt>
      <trkpt lat="37.662191" lon="126.987449"><ele>326.2</ele><time>2026-05-17T08:39:54Z</time></trkpt>
      <trkpt lat="37.662302" lon="126.987381"><ele>333.3</ele><time>2026-05-17T08:40:16Z</time></trkpt>
      <trkpt lat="37.662413" lon="126.987310"><ele>339.7</ele><time>2026-05-17T08:40:38Z</time></trkpt>
      <trkpt lat="37.662522" lon="126.987237"><ele>345.1</ele><time>2026-05-17T08:41:00Z</time></trkpt>
      <trkpt lat="37.662631" lon="126.987162"><ele>353.6</ele><time>2026-05-17T08:41:22Z</time></trkpt>
      <trkpt lat="37.662739" lon="126.987085"><ele>358.2</ele><time>2026-05-17T08:41:44Z</time></trkpt>
      <trkpt lat="37.662847" lon="126.987005"><ele>367.4</ele><time>2026-05-17T08:42:06Z</time></trkpt>
      <trkpt lat="37.662953" lon="126.986923"><ele>372.6</ele><time>2026-05-17T08:42:28Z</time></trkpt>
      <trkpt lat="37.663059" lon="126.986838"><ele>380.9</ele><time>2026-05-17T08:42:50Z</time></trkpt>
      <trkpt lat="37.663163" lon="126.986752"><ele>388.2</ele><time>2026-05-17T08:43:12Z</time></trkpt>
      <trkpt lat="37.663267" lon="126.986663"><ele>394.7</ele><time>2026-05-17T08:43:34Z</time></trkpt>
      <trkpt lat="37.663370" lon="126.986572"><ele>404.0</ele><time>2026-05-17T08:43:56Z</time></trkpt>
      <trkpt lat="37.663472" lon="126.986479"><ele>409.5</ele><time>2026-05-17T08:44:18Z</time></trkpt>
      <trkpt lat="37.663572" lon="126.986384"><ele>419.6</ele><time>2026-05-17T08:44:40Z</time></trkpt>
      <trkpt lat="37.663672" lon="126.986287"><ele>425.5</ele><time>2026-05-17T08:45:02Z</time></trkpt>
      <trkpt lat="37.663771" lon="126.986187"><ele>434.6</ele><time>2026-05-17T08:45:24Z</time></trkpt>
      <trkpt lat="37.663869" lon="126.986086"><ele>442.5</ele><time>2026-05-17T08:45:46Z</time></trkpt>
      <trkpt lat="37.663965" lon="126.985982"><ele>449.7</ele><time>2026-05-17T08:46:08Z</time></trkpt>
      <trkpt lat="37.664060" lon="126.985877"><ele>459.6</ele><time>2026-05-17T08:46:30Z</time></trkpt>
      <trkpt lat="37.664155" lon="126.985769"><ele>465.6</ele><time>2026-05-17T08:46:52Z</time></trkpt>
      <trkpt lat="37.664248" lon="126.985660"><ele>476.2</ele><time>2026-05-17T08:47:14Z</time></trkpt>
      <trkpt lat="37.664340" lon="126.985548"><ele>482.5</ele><time>2026-05-17T08:47:36Z</time></trkpt>
      <trkpt lat="37.664430" lon="126.985435"><ele>492.1</ele><time>2026-05-17T08:47:58Z</time></trkpt>
      <trkpt lat="37.664520" lon="126.985320"><ele>500.2</ele><time>2026-05-17T08:48:20Z</time></trkpt>
      <trkpt lat="37.664608" lon="126.985203"><ele>507.8</ele><time>2026-05-17T08:48:42Z</time></trkpt>
      <trkpt lat="37.664695" lon="126.985084"><ele>517.8</ele><time>2026-05-17T08:49:04Z</time></trkpt>
      <trkpt lat="37.664781" lon="126.984963"><ele>524.1</ele><time>2026-05-17T08:49:26Z</time></trkpt>
      <trkpt lat="37.664865" lon="126.984840"><ele>534.8</ele><time>2026-05-17T08:49:48Z</time></trkpt>
      <trkpt lat="37.664949" lon="126.984716"><ele>541.1</ele><time>2026-05-17T08:50:10Z</time></trkpt>
      <trkpt lat="37.665030" lon="126.984590"><ele>550.9</ele><time>2026-05-17T08:50:32Z</time></trkpt>
      <trkpt lat="37.665111" lon="126.984462"><ele>558.8</ele><time>2026-05-17T08:50:54Z</time></trkpt>
      <trkpt lat="37.665190" lon="126.984333"><ele>566.5</ele><time>2026-05-17T08:51:16Z</time></trkpt>
      <trkpt lat="37.665267" lon="126.984202"><ele>576.2</ele><time>2026-05-17T08:51:38Z</time></trkpt>
      <trkpt lat="37.665344" lon="126.984069"><ele>582.3</ele><time>2026-05-17T08:52:00Z</time></trkpt>
      <trkpt lat="37.665418" lon="126.983935"><ele>592.8</ele><time>2026-05-17T08:52:22Z</time></trkpt>
      <trkpt lat="37.665492" lon="126.983799"><ele>598.8</ele><time>2026-05-17T08:52:44Z</time></trkpt>
      <trkpt lat="37.665564" lon="126.983662"><ele>608.2</ele><time>2026-05-17T08:53:06Z</time></trkpt>
      <trkpt lat="37.665634" lon="126.983523"><ele>615.6</ele><time>2026-05-17T08:53:28Z</time></trkpt>
      <trkpt lat="37.665703" lon="126.983382"><ele>623.0</ele><time>2026-05-17T08:53:50Z</time></trkpt>
      <trkpt lat="37.665771" lon="126.983240"><ele>632.2</ele><time>2026-05-17T08:54:12Z</time></trkpt>
      <trkpt lat="37.665836" lon="126.983097"><ele>637.8</ele><time>2026-05-17T08:54:34Z</time></trkpt>
      <trkpt lat="37.665901" lon="126.982953"><ele>647.6</ele><time>2026-05-17T08:54:56Z</time></trkpt>
      <trkpt lat="37.665964" lon="126.982807"><ele>652.9</ele><time>2026-05-17T08:55:18Z</time></trkpt>
      <trkpt lat="37.666025" lon="126.982660"><ele>661.8</ele><time>2026-05-17T08:55:40Z</time></trkpt>
      <trkpt lat="37.666085" lon="126.982511"><ele>668.3</ele><time>2026-05-17T08:56:02Z</time></trkpt>
      <trkpt lat="37.666143" lon="126.982361"><ele>675.0</ele><time>2026-05-17T08:56:24Z</time></trkpt>
      <trkpt lat="37.666199" lon="126.982210"><ele>683.2</ele><time>2026-05-17T08:56:46Z</time></trkpt>
      <trkpt lat="37.666254" lon="126.982058"><ele>688.0</ele><time>2026-05-17T08:57:08Z</time></trkpt>
      <trkpt lat="37.666307" lon="126.981905"><ele>696.9</ele><time>2026-05-17T08:57:30Z</time></trkpt>
      <trkpt lat="37.666359" lon="126.981751"><ele>701.2</ele><time>2026-05-17T08:57:52Z</time></trkpt>
      <trkpt lat="37.666409" lon="126.981595"><ele>709.1</ele><time>2026-05-17T08:58:14Z</time></trkpt>
      <trkpt lat="37.666457" lon="126.981439"><ele>714.5</ele><time>2026-05-17T08:58:36Z</time></trkpt>
      <trkpt lat="37.666504" lon="126.981282"><ele>720.2</ele><time>2026-05-17T08:58:58Z</time></trkpt>
      <trkpt lat="37.666548" lon="126.981123"><ele>727.2</ele><time>2026-05-17T08:59:20Z</time></trkpt>
      <trkpt lat="37.666592" lon="126.980964"><ele>730.8</ele><time>2026-05-17T08:59:42Z</time></trkpt>
      <trkpt lat="37.666633" lon="126.980804"><ele>738.5</ele><time>2026-05-17T09:00:04Z</time></trkpt>
      <trkpt lat="37.666673" lon="126.980643"><ele>741.5</ele><time>2026-05-17T09:00:26Z</time></trkpt>
      <trkpt lat="37.666711" lon="126.980481"><ele>748.2</ele><time>2026-05-17T09:00:48Z</time></trkpt>
      <trkpt lat="37.666747" lon="126.980318"><ele>752.1</ele><time>2026-05-17T09:01:10Z</time></trkpt>
      <trkpt lat="37.666782" lon="126.980155"><ele>756.6</ele><time>2026-05-17T09:01:32Z</time></trkpt>
      <trkpt lat="37.666815" lon="126.979990"><ele>762.0</ele><time>2026-05-17T09:01:54Z</time></trkpt>
      <trkpt lat="37.666846" lon="126.979826"><ele>764.3</ele><time>2026-05-17T09:02:16Z</time></trkpt>
      <trkpt lat="37.666875" lon="126.979660"><ele>770.5</ele><time>2026-05-17T09:02:38Z</time></trkpt>
      <trkpt lat="37.666903" lon="126.979494"><ele>772.0</ele><time>2026-05-17T09:03:00Z</time></trkpt>
      <trkpt lat="37.666928" lon="126.979328"><ele>777.3</ele><time>2026-05-17T09:03:22Z</time></trkpt>
      <trkpt lat="37.666952" lon="126.979160"><ele>779.5</ele><time>2026-05-17T09:03:44Z</time></trkpt>
      <trkpt lat="37.666975" lon="126.978993"><ele>782.5</ele><time>2026-05-17T09:04:06Z</time></trkpt>
      <trkpt lat="37.666995" lon="126.978825"><ele>786.3</ele><time>2026-05-17T09:04:28Z</time></trkpt>
      <trkpt lat="37.667014" lon="126.978656"><ele>787.0</ele><time>2026-05-17T09:04:50Z</time></trkpt>
      <trkpt lat="37.667030" lon="126.978487"><ele>791.6</ele><time>2026-05-17T09:05:12Z</time></trkpt>
      <trkpt lat="37.667045" lon="126.978318"><ele>791.4</ele><time>2026-05-17T09:05:34Z</time></trkpt>
      <trkpt lat="37.667059" lon="126.978149"><ele>795.1</ele><time>2026-05-17T09:05:56Z</time></trkpt>
      <trkpt lat="37.667070" lon="126.977979"><ele>795.5</ele><time>2026-05-17T09:06:18Z</time></trkpt>
      <trkpt lat="37.667079" lon="126.977809"><ele>797.0</ele><time>2026-05-17T09:06:40Z</time></trkpt>
      <trkpt lat="37.667087" lon="126.977639"><ele>798.9</ele><time>2026-05-17T09:07:02Z</time></trkpt>
      <trkpt lat="37.667093" lon="126.977469"><ele>798.0</ele><time>2026-05-17T09:07:24Z</time></trkpt>
      <trkpt lat="37.667097" lon="126.977298"><ele>800.8</ele><time>2026-05-17T09:07:46Z</time></trkpt>
      <trkpt lat="37.667099" lon="126.977128"><ele>798.8</ele><time>2026-05-17T09:08:08Z</time></trkpt>
      <trkpt lat="37.667100" lon="126.976957"><ele>800.8</ele><time>2026-05-17T09:08:30Z</time></trkpt>
      <trkpt lat="37.667099" lon="126.976787"><ele>799.4</ele><time>2026-05-17T09:08:52Z</time></trkpt>
      <trkpt lat="37.667095" lon="126.976616"><ele>799.2</ele><time>2026-05-17T09:09:14Z</time></trkpt>
      <trkpt lat="37.667090" lon="126.976446"><ele>799.3</ele><time>2026-05-17T09:09:36Z</time></trkpt>
      <trkpt lat="37.667084" lon="126.976276"><ele>796.7</ele><time>2026-05-17T09:09:58Z</time></trkpt>
      <trkpt lat="37.667075" lon="126.976106"><ele>797.7</ele><time>2026-05-17T09:10:20Z</time></trkpt>
      <trkpt lat="37.667064" lon="126.975936"><ele>794.0</ele><time>2026-05-17T09:10:42Z</time></trkpt>
      <trkpt lat="37.667052" lon="126.975766"><ele>794.3</ele><time>2026-05-17T09:11:04Z</time></trkpt>
      <trkpt lat="37.667038" lon="126.975597"><ele>791.0</ele><time>2026-05-17T09:11:26Z</time></trkpt>
      <trkpt lat="37.667022" lon="126.975428"><ele>789.2</ele><time>2026-05-17T09:11:48Z</time></trkpt>
      <trkpt lat="37.667005" lon="126.975259"><ele>787.5</ele><time>2026-05-17T09:12:10Z</time></trkpt>
      <trkpt lat="37.666985" lon="126.975091"><ele>783.2</ele><time>2026-05-17T09:12:32Z</time></trkpt>
      <trkpt lat="37.666964" lon="126.974923"><ele>782.5</ele><time>2026-05-17T09:12:54Z</time></trkpt>
      <trkpt lat="37.666941" lon="126.974756"><ele>777.0</ele><time>2026-05-17T09:13:16Z</time></trkpt>
      <trkpt lat="37.666916" lon="126.974589"><ele>775.7</ele><time>2026-05-17T09:13:38Z</time></trkpt>
      <trkpt lat="37.666889" lon="126.974423"><ele>770.7</ele><time>2026-05-17T09:14:00Z</time></trkpt>
      <trkpt lat="37.666861" lon="126.974257"><ele>767.4</ele><time>2026-05-17T09:14:22Z</time></trkpt>
      <trkpt lat="37.666831" lon="126.974092"><ele>763.9</ele><time>2026-05-17T09:14:44Z</time></trkpt>
      <trkpt lat="37.666799" lon="126.973927"><ele>758.1</ele><time>2026-05-17T09:15:06Z</time></trkpt>
      <trkpt lat="37.666765" lon="126.973764"><ele>755.8</ele><time>2026-05-17T09:15:28Z</time></trkpt>
      <trkpt lat="37.666729" lon="126.973601"><ele>748.8</ele><time>2026-05-17T09:15:50Z</time></trkpt>
      <trkpt lat="37.666692" lon="126.973438"><ele>746.0</ele><time>2026-05-17T09:16:12Z</time></trkpt>
      <trkpt lat="37.666653" lon="126.973277"><ele>739.4</ele><time>2026-05-17T09:16:34Z</time></trkpt>
      <trkpt lat="37.666613" lon="126.973116"><ele>734.7</ele><time>2026-05-17T09:16:56Z</time></trkpt>
      <trkpt lat="37.666570" lon="126.972956"><ele>729.6</ele><time>2026-05-17T09:17:18Z</time></trkpt>
      <trkpt lat="37.666526" lon="126.972798"><ele>722.6</ele><time>2026-05-17T09:17:40Z</time></trkpt>
      <trkpt lat="37.666481" lon="126.972640"><ele>718.8</ele><time>2026-05-17T09:18:02Z</time></trkpt>
      <trkpt lat="37.666433" lon="126.972483"><ele>710.4</ele><time>2026-05-17T09:18:24Z</time></trkpt>
      <trkpt lat="37.666384" lon="126.972327"><ele>706.4</ele><time>2026-05-17T09:18:46Z</time></trkpt>
      <trkpt lat="37.666333" lon="126.972172"><ele>698.4</ele><time>2026-05-17T09:19:08Z</time></trkpt>
      <trkpt lat="37.666281" lon="126.972018"><ele>692.5</ele><time>2026-05-17T09:19:30Z</time></trkpt>
      <trkpt lat="37.666227" lon="126.971865"><ele>686.2</ele><time>2026-05-17T09:19:52Z</time></trkpt>
      <trkpt lat="37.666171" lon="126.971714"><ele>678.1</ele><time>2026-05-17T09:20:14Z</time></trkpt>
      <trkpt lat="37.666114" lon="126.971564"><ele>673.1</ele><time>2026-05-17T09:20:36Z</time></trkpt>
      <trkpt lat="37.666055" lon="126.971414"><ele>663.6</ele><time>2026-05-17T09:20:58Z</time></trkpt>
      <trkpt lat="37.665994" lon="126.971267"><ele>658.6</ele><time>2026-05-17T09:21:20Z</time></trkpt>
      <trkpt lat="37.665932" lon="126.971120"><ele>649.5</ele><time>2026-05-17T09:21:42Z</time></trkpt>
      <trkpt lat="37.665869" lon="126.970975"><ele>642.9</ele><time>2026-05-17T09:22:04Z</time></trkpt>
      <trkpt lat="37.665804" lon="126.970831"><ele>635.5</ele><time>2026-05-17T09:22:26Z</time></trkpt>
      <trkpt lat="37.665737" lon="126.970688"><ele>626.6</ele><time>2026-05-17T09:22:48Z</time></trkpt>
      <trkpt lat="37.665669" lon="126.970547"><ele>620.7</ele><time>2026-05-17T09:23:10Z</time></trkpt>
      <trkpt lat="37.665599" lon="126.970408"><ele>610.5</ele><time>2026-05-17T09:23:32Z</time></trkpt>
      <trkpt lat="37.665528" lon="126.970270"><ele>604.8</ele><time>2026-05-17T09:23:54Z</time></trkpt>
      <trkpt lat="37.665455" lon="126.970133"><ele>595.0</ele><time>2026-05-17T09:24:16Z</time></trkpt>
      <trkpt lat="37.665381" lon="126.969998"><ele>587.8</ele><time>2026-05-17T09:24:38Z</time></trkpt>
      <trkpt lat="37.665306" lon="126.969864"><ele>579.7</ele><time>2026-05-17T09:25:00Z</time></trkpt>
      <trkpt lat="37.665229" lon="126.969732"><ele>570.4</ele><time>2026-05-17T09:25:22Z</time></trkpt>
      <trkpt lat="37.665150" lon="126.969602"><ele>564.0</ele><time>2026-05-17T09:25:44Z</time></trkpt>
      <trkpt lat="37.665071" lon="126.969474"><ele>553.4</ele><time>2026-05-17T09:26:06Z</time></trkpt>
      <trkpt lat="37.664990" lon="126.969347"><ele>547.3</ele><time>2026-05-17T09:26:28Z</time></trkpt>
      <trkpt lat="37.664907" lon="126.969221"><ele>537.1</ele><time>2026-05-17T09:26:50Z</time></trkpt>
      <trkpt lat="37.664823" lon="126.969098"><ele>529.7</ele><time>2026-05-17T09:27:12Z</time></trkpt>
      <trkpt lat="37.664738" lon="126.968976"><ele>521.3</ele><time>2026-05-17T09:27:34Z</time></trkpt>
      <trkpt lat="37.664652" lon="126.968856"><ele>511.9</ele><time>2026-05-17T09:27:56Z</time></trkpt>
      <trkpt lat="37.664564" lon="126.968738"><ele>505.3</ele><time>2026-05-17T09:28:18Z</time></trkpt>
      <trkpt lat="37.664475" lon="126.968622"><ele>494.7</ele><time>2026-05-17T09:28:40Z</time></trkpt>
      <trkpt lat="37.664385" lon="126.968508"><ele>488.6</ele><time>2026-05-17T09:29:02Z</time></trkpt>
      <trkpt lat="37.664294" lon="126.968396"><ele>478.4</ele><time>2026-05-17T09:29:24Z</time></trkpt>
      <trkpt lat="37.664201" lon="126.968285"><ele>471.2</ele><time>2026-05-17T09:29:46Z</time></trkpt>
      <trkpt lat="37.664108" lon="126.968177"><ele>462.9</ele><time>2026-05-17T09:30:08Z</time></trkpt>
      <trkpt lat="37.664013" lon="126.968070"><ele>453.8</ele><time>2026-05-17T09:30:30Z</time></trkpt>
      <trkpt lat="37.663917" lon="126.967966"><ele>447.4</ele><time>2026-05-17T09:30:52Z</time></trkpt>
      <trkpt lat="37.663820" lon="126.967863"><ele>437.1</ele><time>2026-05-17T09:31:14Z</time></trkpt>
      <trkpt lat="37.663722" lon="126.967763"><ele>431.4</ele><time>2026-05-17T09:31:36Z</time></trkpt>
      <trkpt lat="37.663622" lon="126.967664"><ele>421.5</ele><time>2026-05-17T09:31:58Z</time></trkpt>
      <trkpt lat="37.663522" lon="126.967568"><ele>414.9</ele><time>2026-05-17T09:32:20Z</time></trkpt>
      <trkpt lat="37.663421" lon="126.967474"><ele>407.0</ele><time>2026-05-17T09:32:42Z</time></trkpt>
      <trkpt lat="37.663319" lon="126.967382"><ele>398.6</ele><time>2026-05-17T09:33:04Z</time></trkpt>
      <trkpt lat="37.663215" lon="126.967292"><ele>392.7</ele><time>2026-05-17T09:33:26Z</time></trkpt>
      <trkpt lat="37.663111" lon="126.967205"><ele>383.1</ele><time>2026-05-17T09:33:48Z</time></trkpt>
      <trkpt lat="37.663006" lon="126.967119"><ele>378.1</ele><time>2026-05-17T09:34:10Z</time></trkpt>
      <trkpt lat="37.662900" lon="126.967036"><ele>368.9</ele><time>2026-05-17T09:34:32Z</time></trkpt>
      <trkpt lat="37.662793" lon="126.966955"><ele>363.3</ele><time>2026-05-17T09:34:54Z</time></trkpt>
      <trkpt lat="37.662685" lon="126.966876"><ele>356.0</ele><time>2026-05-17T09:35:16Z</time></trkpt>
      <trkpt lat="37.662577" lon="126.966800"><ele>348.6</ele><time>2026-05-17T09:35:38Z</time></trkpt>
      <trkpt lat="37.662467" lon="126.966726"><ele>343.6</ele><time>2026-05-17T09:36:00Z</time></trkpt>
      <trkpt lat="37.662357" lon="126.966654"><ele>335.0</ele><time>2026-05-17T09:36:22Z</time></trkpt>
      <trkpt lat="37.662246" lon="126.966585"><ele>331.1</ele><time>2026-05-17T09:36:44Z</time></trkpt>
      <trkpt lat="37.662135" lon="126.966517"><ele>323.0</ele><time>2026-05-17T09:37:06Z</time></trkpt>
      <trkpt lat="37.662022" lon="126.966453"><ele>318.5</ele><time>2026-05-17T09:37:28Z</time></trkpt>
      <trkpt lat="37.661909" lon="126.966390"><ele>312.3</ele><time>2026-05-17T09:37:50Z</time></trkpt>
      <trkpt lat="37.661796" lon="126.966330"><ele>306.2</ele><time>2026-05-17T09:38:12Z</time></trkpt>
      <trkpt lat="37.661681" lon="126.966272"><ele>302.3</ele><time>2026-05-17T09:38:34Z</time></trkpt>
      <trkpt lat="37.661566" lon="126.966217"><ele>295.1</ele><time>2026-05-17T09:38:56Z</time></trkpt>
      <trkpt lat="37.661451" lon="126.966164"><ele>292.4</ele><time>2026-05-17T09:39:18Z</time></trkpt>
      <trkpt lat="37.661335" lon="126.966114"><ele>285.6</ele><time>2026-05-17T09:39:40Z</time></trkpt>
      <trkpt lat="37.661218" lon="126.966066"><ele>282.6</ele><time>2026-05-17T09:40:02Z</time></trkpt>
      <trkpt lat="37.661101" lon="126.966021"><ele>277.6</ele><time>2026-05-17T09:40:24Z</time></trkpt>
      <trkpt lat="37.660984" lon="126.965978"><ele>273.1</ele><time>2026-05-17T09:40:46Z</time></trkpt>
      <trkpt lat="37.660866" lon="126.965937"><ele>270.6</ele><time>2026-05-17T09:41:08Z</time></trkpt>
      <trkpt lat="37.660747" lon="126.965899"><ele>264.9</ele><time>2026-05-17T09:41:30Z</time></trkpt>
      <trkpt lat="37.660629" lon="126.965864"><ele>263.8</ele><time>2026-05-17T09:41:52Z</time></trkpt>
      <trkpt lat="37.660509" lon="126.965831"><ele>258.5</ele><time>2026-05-17T09:42:14Z</time></trkpt>
      <trkpt lat="37.660390" lon="126.965800"><ele>257.1</ele><time>2026-05-17T09:42:36Z</time></trkpt>
      <trkpt lat="37.660270" lon="126.965772"><ele>253.7</ele><time>2026-05-17T09:42:58Z</time></trkpt>
      <trkpt lat="37.660150" lon="126.965747"><ele>250.9</ele><time>2026-05-17T09:43:20Z</time></trkpt>
      <trkpt lat="37.660030" lon="126.965724"><ele>249.9</ele><time>2026-05-17T09:43:42Z</time></trkpt>
      <trkpt lat="37.659909" lon="126.965703"><ele>245.9</ele><time>2026-05-17T09:44:04Z</time></trkpt>
      <trkpt lat="37.659788" lon="126.965685"><ele>246.5</ele><time>2026-05-17T09:44:26Z</time></trkpt>
      <trkpt lat="37.659667" lon="126.965670"><ele>242.8</ele><time>2026-05-17T09:44:48Z</time></trkpt>
      <trkpt lat="37.659546" lon="126.965657"><ele>243.2</ele><time>2026-05-17T09:45:10Z</time></trkpt>
      <trkpt lat="37.659425" lon="126.965647"><ele>241.4</ele><time>2026-05-17T09:45:32Z</time></trkpt>
      <trkpt lat="37.659304" lon="126.965639"><ele>240.4</ele><time>2026-05-17T09:45:54Z</time></trkpt>
      <trkpt lat="37.659182" lon="126.965634"><ele>241.1</ele><time>2026-05-17T09:46:16Z</time></trkpt>
      <trkpt lat="37.659061" lon="126.965632"><ele>238.9</ele><time>2026-05-17T09:46:38Z</time></trkpt>
      <trkpt lat="37.658939" lon="126.965632"><ele>241.2</ele><time>2026-05-17T09:47:00Z</time></trkpt>
      <trkpt lat="37.658818" lon="126.965634"><ele>239.2</ele><time>2026-05-17T09:47:22Z</time></trkpt>
      <trkpt lat="37.658696" lon="126.965639"><ele>241.5</ele><time>2026-05-17T09:47:44Z</time></trkpt>
      <trkpt lat="37.658575" lon="126.965647"><ele>241.3</ele><time>2026-05-17T09:48:06Z</time></trkpt>
      <trkpt lat="37.658454" lon="126.965657"><ele>242.2</ele><time>2026-05-17T09:48:28Z</time></trkpt>
      <trkpt lat="37.658333" lon="126.965670"><ele>244.6</ele><time>2026-05-17T09:48:50Z</time></trkpt>
      <trkpt lat="37.658212" lon="126.965685"><ele>244.2</ele><time>2026-05-17T09:49:12Z</time></trkpt>
      <trkpt lat="37.658091" lon="126.965703"><ele>248.3</ele><time>2026-05-17T09:49:34Z</time></trkpt>
      <trkpt lat="37.657970" lon="126.965724"><ele>248.0</ele><time>2026-05-17T09:49:56Z</time></trkpt>
      <trkpt lat="37.657850" lon="126.965747"><ele>252.0</ele><time>2026-05-17T09:50:18Z</time></trkpt>
      <trkpt lat="37.657730" lon="126.965772"><ele>253.5</ele><time>2026-05-17T09:50:40Z</time></trkpt>
      <trkpt lat="37.657610" lon="126.965800"><ele>256.2</ele><time>2026-05-17T09:51:02Z</time></trkpt>
      <trkpt lat="37.657491" lon="126.965831"><ele>260.2</ele><time>2026-05-17T09:51:24Z</time></trkpt>
      <trkpt lat="37.657371" lon="126.965864"><ele>261.6</ele><time>2026-05-17T09:51:46Z</time></trkpt>
      <trkpt lat="37.657253" lon="126.965899"><ele>267.3</ele><time>2026-05-17T09:52:08Z</time></trkpt>
      <trkpt lat="37.657134" lon="126.965937"><ele>268.6</ele><time>2026-05-17T09:52:30Z</time></trkpt>
      <trkpt lat="37.657016" lon="126.965978"><ele>274.4</ele><time>2026-05-17T09:52:52Z</time></trkpt>
      <trkpt lat="37.656899" lon="126.966021"><ele>277.3</ele><time>2026-05-17T09:53:14Z</time></trkpt>
      <trkpt lat="37.656782" lon="126.966066"><ele>281.8</ele><time>2026-05-17T09:53:36Z</time></trkpt>
      <trkpt lat="37.656665" lon="126.966114"><ele>287.2</ele><time>2026-05-17T09:53:58Z</time></trkpt>
      <trkpt lat="37.656549" lon="126.966164"><ele>290.2</ele><time>2026-05-17T09:54:20Z</time></trkpt>
      <trkpt lat="37.656434" lon="126.966217"><ele>297.4</ele><time>2026-05-17T09:54:42Z</time></trkpt>
      <trkpt lat="37.656319" lon="126.966272"><ele>300.2</ele><time>2026-05-17T09:55:04Z</time></trkpt>
      <trkpt lat="37.656204" lon="126.966330"><ele>307.6</ele><time>2026-05-17T09:55:26Z</time></trkpt>
      <trkpt lat="37.656091" lon="126.966390"><ele>311.8</ele><time>2026-05-17T09:55:48Z</time></trkpt>
      <trkpt lat="37.655978" lon="126.966453"><ele>317.8</ele><time>2026-05-17T09:56:10Z</time></trkpt>
      <trkpt lat="37.655865" lon="126.966517"><ele>324.5</ele><time>2026-05-17T09:56:32Z</time></trkpt>
      <trkpt lat="37.655754" lon="126.966585"><ele>329.0</ele><time>2026-05-17T09:56:54Z</time></trkpt>
      <trkpt lat="37.655643" lon="126.966654"><ele>337.4</ele><time>2026-05-17T09:57:16Z</time></trkpt>
      <trkpt lat="37.655533" lon="126.966726"><ele>341.5</ele><time>2026-05-17T09:57:38Z</time></trkpt>
      <trkpt lat="37.655423" lon="126.966800"><ele>350.1</ele><time>2026-05-17T09:58:00Z</time></trkpt>
      <trkpt lat="37.655315" lon="126.966876"><ele>355.5</ele><time>2026-05-17T09:58:22Z</time></trkpt>
      <trkpt lat="37.655207" lon="126.966955"><ele>362.7</ele><time>2026-05-17T09:58:44Z</time></trkpt>
      <trkpt lat="37.655100" lon="126.967036"><ele>370.4</ele><time>2026-05-17T09:59:06Z</time></trkpt>
      <trkpt lat="37.654994" lon="126.967119"><ele>376.0</ele><time>2026-05-17T09:59:28Z</time></trkpt>
      <trkpt lat="37.654889" lon="126.967205"><ele>385.4</ele><time>2026-05-17T09:59:50Z</time></trkpt>
      <trkpt lat="37.654785" lon="126.967292"><ele>390.5</ele><time>2026-05-17T10:00:12Z</time></trkpt>
      <trkpt lat="37.654681" lon="126.967382"><ele>400.1</ele><time>2026-05-17T10:00:34Z</time></trkpt>
      <trkpt lat="37.654579" lon="126.967474"><ele>406.3</ele><time>2026-05-17T10:00:56Z</time></trkpt>
      <trkpt lat="37.654478" lon="126.967568"><ele>414.5</ele><time>2026-05-17T10:01:18Z</time></trkpt>
      <trkpt lat="37.654378" lon="126.967664"><ele>422.9</ele><time>2026-05-17T10:01:40Z</time></trkpt>
      <trkpt lat="37.654278" lon="126.967763"><ele>429.4</ele><time>2026-05-17T10:02:02Z</time></trkpt>
      <trkpt lat="37.654180" lon="126.967863"><ele>439.4</ele><time>2026-05-17T10:02:24Z</time></trkpt>
      <trkpt lat="37.654083" lon="126.967966"><ele>445.2</ele><time>2026-05-17T10:02:46Z</time></trkpt>
      <trkpt lat="37.653987" lon="126.968070"><ele>455.4</ele><time>2026-05-17T10:03:08Z</time></trkpt>
      <trkpt lat="37.653892" lon="126.968177"><ele>462.1</ele><time>2026-05-17T10:03:30Z</time></trkpt>
      <trkpt lat="37.653799" lon="126.968285"><ele>471.0</ele><time>2026-05-17T10:03:52Z</time></trkpt>
      <trkpt lat="37.653706" lon="126.968396"><ele>479.7</ele><time>2026-05-17T10:04:14Z</time></trkpt>
      <trkpt lat="37.653615" lon="126.968508"><ele>486.6</ele><time>2026-05-17T10:04:36Z</time></trkpt>
      <trkpt lat="37.653525" lon="126.968622"><ele>497.0</ele><time>2026-05-17T10:04:58Z</time></trkpt>
      <trkpt lat="37.653436" lon="126.968738"><ele>503.1</ele><time>2026-05-17T10:05:20Z</time></trkpt>
      <trkpt lat="37.653348" lon="126.968856"><ele>513.7</ele><time>2026-05-17T10:05:42Z</time></trkpt>
      <trkpt lat="37.653262" lon="126.968976"><ele>520.4</ele><time>2026-05-17T10:06:04Z</time></trkpt>
      <trkpt lat="37.653177" lon="126.969098"><ele>529.6</ele><time>2026-05-17T10:06:26Z</time></trkpt>
      <trkpt lat="37.653093" lon="126.969221"><ele>538.2</ele><time>2026-05-17T10:06:48Z</time></trkpt>
      <trkpt lat="37.653010" lon="126.969347"><ele>545.4</ele><time>2026-05-17T10:07:10Z</time></trkpt>
      <trkpt lat="37.652929" lon="126.969474"><ele>555.7</ele><time>2026-05-17T10:07:32Z</time></trkpt>
      <trkpt lat="37.652850" lon="126.969602"><ele>561.7</ele><time>2026-05-17T10:07:54Z</time></trkpt>
      <trkpt lat="37.652771" lon="126.969732"><ele>572.2</ele><time>2026-05-17T10:08:16Z</time></trkpt>
      <trkpt lat="37.652694" lon="126.969864"><ele>578.7</ele><time>2026-05-17T10:08:38Z</time></trkpt>
      <trkpt lat="37.652619" lon="126.969998"><ele>587.7</ele><time>2026-05-17T10:09:00Z</time></trkpt>
      <trkpt lat="37.652545" lon="126.970133"><ele>596.0</ele><time>2026-05-17T10:09:22Z</time></trkpt>
      <trkpt lat="37.652472" lon="126.970270"><ele>602.9</ele><time>2026-05-17T10:09:44Z</time></trkpt>
      <trkpt lat="37.652401" lon="126.970408"><ele>612.8</ele><time>2026-05-17T10:10:06Z</time></trkpt>
      <trkpt lat="37.652331" lon="126.970547"><ele>618.4</ele><time>2026-05-17T10:10:28Z</time></trkpt>
      <trkpt lat="37.652263" lon="126.970688"><ele>628.5</ele><time>2026-05-17T10:10:50Z</time></trkpt>
      <trkpt lat="37.652196" lon="126.970831"><ele>634.4</ele><time>2026-05-17T10:11:12Z</time></trkpt>
      <trkpt lat="37.652131" lon="126.970975"><ele>642.9</ele><time>2026-05-17T10:11:34Z</time></trkpt>
      <trkpt lat="37.652068" lon="126.971120"><ele>650.5</ele><time>2026-05-17T10:11:56Z</time></trkpt>
      <trkpt lat="37.652006" lon="126.971267"><ele>656.8</ele><time>2026-05-17T10:12:18Z</time></trkpt>
      <trkpt lat="37.651945" lon="126.971414"><ele>665.9</ele><time>2026-05-17T10:12:40Z</time></trkpt>
      <trkpt lat="37.651886" lon="126.971564"><ele>670.7</ele><time>2026-05-17T10:13:02Z</time></trkpt>
      <trkpt lat="37.651829" lon="126.971714"><ele>680.0</ele><time>2026-05-17T10:13:24Z</time></trkpt>
      <trkpt lat="37.651773" lon="126.971865"><ele>685.0</ele><time>2026-05-17T10:13:46Z</time></trkpt>
      <trkpt lat="37.651719" lon="126.972018"><ele>692.8</ele><time>2026-05-17T10:14:08Z</time></trkpt>
      <trkpt lat="37.651667" lon="126.972172"><ele>699.2</ele><time>2026-05-17T10:14:30Z</time></trkpt>
      <trkpt lat="37.651616" lon="126.972327"><ele>704.7</ele><time>2026-05-17T10:14:52Z</time></trkpt>
      <trkpt lat="37.651567" lon="126.972483"><ele>712.6</ele><time>2026-05-17T10:15:14Z</time></trkpt>
      <trkpt lat="37.651519" lon="126.972640"><ele>716.4</ele><time>2026-05-17T10:15:36Z</time></trkpt>
      <trkpt lat="37.651474" lon="126.972798"><ele>724.6</ele><time>2026-05-17T10:15:58Z</time></trkpt>
      <trkpt lat="37.651430" lon="126.972956"><ele>728.3</ele><time>2026-05-17T10:16:20Z</time></trkpt>
      <trkpt lat="37.651387" lon="126.973116"><ele>735.0</ele><time>2026-05-17T10:16:42Z</time></trkpt>
      <trkpt lat="37.651347" lon="126.973277"><ele>740.1</ele><time>2026-05-17T10:17:04Z</time></trkpt>
      <trkpt lat="37.651308" lon="126.973438"><ele>744.4</ele><time>2026-05-17T10:17:26Z</time></trkpt>
      <trkpt lat="37.651271" lon="126.973601"><ele>751.0</ele><time>2026-05-17T10:17:48Z</time></trkpt>
      <trkpt lat="37.651235" lon="126.973764"><ele>753.4</ele><time>2026-05-17T10:18:10Z</time></trkpt>
      <trkpt lat="37.651201" lon="126.973927"><ele>760.2</ele><time>2026-05-17T10:18:32Z</time></trkpt>
      <trkpt lat="37.651169" lon="126.974092"><ele>762.5</ele><time>2026-05-17T10:18:54Z</time></trkpt>
      <trkpt lat="37.651139" lon="126.974257"><ele>767.8</ele><time>2026-05-17T10:19:16Z</time></trkpt>
      <trkpt lat="37.651111" lon="126.974423"><ele>771.3</ele><time>2026-05-17T10:19:38Z</time></trkpt>
      <trkpt lat="37.651084" lon="126.974589"><ele>774.2</ele><time>2026-05-17T10:20:00Z</time></trkpt>
      <trkpt lat="37.651059" lon="126.974756"><ele>779.2</ele><time>2026-05-17T10:20:22Z</time></trkpt>
      <trkpt lat="37.651036" lon="126.974923"><ele>780.1</ele><time>2026-05-17T10:20:44Z</time></trkpt>
      <trkpt lat="37.651015" lon="126.975091"><ele>785.4</ele><time>2026-05-17T10:21:06Z</time></trkpt>
      <trkpt lat="37.650995" lon="126.975259"><ele>786.0</ele><time>2026-05-17T10:21:28Z</time></trkpt>
      <trkpt lat="37.650978" lon="126.975428"><ele>789.8</ele><time>2026-05-17T10:21:50Z</time></trkpt>
      <trkpt lat="37.650962" lon="126.975597"><ele>791.5</ele><time>2026-05-17T10:22:12Z</time></trkpt>
      <trkpt lat="37.650948" lon="126.975766"><ele>792.9</ele><time>2026-05-17T10:22:34Z</time></trkpt>
      <trkpt lat="37.650936" lon="126.975936"><ele>796.1</ele><time>2026-05-17T10:22:56Z</time></trkpt>
      <trkpt lat="37.650925" lon="126.976106"><ele>795.4</ele><time>2026-05-17T10:23:18Z</time></trkpt>
      <trkpt lat="37.650916" lon="126.976276"><ele>798.9</ele><time>2026-05-17T10:23:40Z</time></trkpt>
      <trkpt lat="37.650910" lon="126.976446"><ele>797.7</ele><time>2026-05-17T10:24:02Z</time></trkpt>
      <trkpt lat="37.650905" lon="126.976616"><ele>799.9</ele><time>2026-05-17T10:24:24Z</time></trkpt>
      <trkpt lat="37.650901" lon="126.976787"><ele>799.8</ele><time>2026-05-17T10:24:46Z</time></trkpt>
      <trkpt lat="37.650900" lon="126.976957"><ele>799.5</ele><time>2026-05-17T10:25:08Z</time></trkpt>
      <trkpt lat="37.650901" lon="126.977128"><ele>800.8</ele><time>2026-05-17T10:25:30Z</time></trkpt>
      <trkpt lat="37.650903" lon="126.977298"><ele>798.5</ele><time>2026-05-17T10:25:52Z</time></trkpt>
      <trkpt lat="37.650907" lon="126.977469"><ele>800.2</ele><time>2026-05-17T10:26:14Z</time></trkpt>
      <trkpt lat="37.650913" lon="126.977639"><ele>797.3</ele><time>2026-05-17T10:26:36Z</time></trkpt>
      <trkpt lat="37.650921" lon="126.977809"><ele>797.7</ele><time>2026-05-17T10:26:58Z</time></trkpt>
      <trkpt lat="37.650930" lon="126.977979"><ele>795.8</ele><time>2026-05-17T10:27:20Z</time></trkpt>
      <trkpt lat="37.650941" lon="126.978149"><ele>793.8</ele><time>2026-05-17T10:27:42Z</time></trkpt>
      <trkpt lat="37.650955" lon="126.978318"><ele>793.3</ele><time>2026-05-17T10:28:04Z</time></trkpt>
      <trkpt lat="37.650970" lon="126.978487"><ele>789.3</ele><time>2026-05-17T10:28:26Z</time></trkpt>
      <trkpt lat="37.650986" lon="126.978656"><ele>789.3</ele><time>2026-05-17T10:28:48Z</time></trkpt>
      <trkpt lat="37.651005" lon="126.978825"><ele>784.6</ele><time>2026-05-17T10:29:10Z</time></trkpt>
      <trkpt lat="37.651025" lon="126.978993"><ele>783.4</ele><time>2026-05-17T10:29:32Z</time></trkpt>
      <trkpt lat="37.651048" lon="126.979160"><ele>779.6</ele><time>2026-05-17T10:29:54Z</time></trkpt>
      <trkpt lat="37.651072" lon="126.979328"><ele>776.1</ele><time>2026-05-17T10:30:16Z</time></trkpt>
      <trkpt lat="37.651097" lon="126.979494"><ele>773.9</ele><time>2026-05-17T10:30:38Z</time></trkpt>
      <trkpt lat="37.651125" lon="126.979660"><ele>768.2</ele><time>2026-05-17T10:31:00Z</time></trkpt>
      <trkpt lat="37.651154" lon="126.979826"><ele>766.6</ele><time>2026-05-17T10:31:22Z</time></trkpt>
      <trkpt lat="37.651185" lon="126.979990"><ele>760.2</ele><time>2026-05-17T10:31:44Z</time></trkpt>
      <trkpt lat="37.651218" lon="126.980155"><ele>757.6</ele><time>2026-05-17T10:32:06Z</time></trkpt>
      <trkpt lat="37.651253" lon="126.980318"><ele>752.1</ele><time>2026-05-17T10:32:28Z</time></trkpt>
      <trkpt lat="37.651289" lon="126.980481"><ele>747.2</ele><time>2026-05-17T10:32:50Z</time></trkpt>
      <trkpt lat="37.651327" lon="126.980643"><ele>743.3</ele><time>2026-05-17T10:33:12Z</time></trkpt>
      <trkpt lat="37.651367" lon="126.980804"><ele>736.2</ele><time>2026-05-17T10:33:34Z</time></trkpt>
      <trkpt lat="37.651408" lon="126.980964"><ele>733.1</ele><time>2026-05-17T10:33:56Z</time></trkpt>
      <trkpt lat="37.651452" lon="126.981123"><ele>725.3</ele><time>2026-05-17T10:34:18Z</time></trkpt>
      <trkpt lat="37.651496" lon="126.981282"><ele>721.3</ele><time>2026-05-17T10:34:40Z</time></trkpt>
      <trkpt lat="37.651543" lon="126.981439"><ele>714.4</ele><time>2026-05-17T10:35:02Z</time></trkpt>
      <trkpt lat="37.651591" lon="126.981595"><ele>708.2</ele><time>2026-05-17T10:35:24Z</time></trkpt>
      <trkpt lat="37.651641" lon="126.981751"><ele>702.9</ele><time>2026-05-17T10:35:46Z</time></trkpt>
      <trkpt lat="37.651693" lon="126.981905"><ele>694.7</ele><time>2026-05-17T10:36:08Z</time></trkpt>
      <trkpt lat="37.651746" lon="126.982058"><ele>690.3</ele><time>2026-05-17T10:36:30Z</time></trkpt>
      <trkpt lat="37.651801" lon="126.982210"><ele>681.3</ele><time>2026-05-17T10:36:52Z</time></trkpt>
      <trkpt lat="37.651857" lon="126.982361"><ele>676.2</ele><time>2026-05-17T10:37:14Z</time></trkpt>
      <trkpt lat="37.651915" lon="126.982511"><ele>668.1</ele><time>2026-05-17T10:37:36Z</time></trkpt>
      <trkpt lat="37.651975" lon="126.982660"><ele>661.0</ele><time>2026-05-17T10:37:58Z</time></trkpt>
      <trkpt lat="37.652036" lon="126.982807"><ele>654.6</ele><time>2026-05-17T10:38:20Z</time></trkpt>
      <trkpt lat="37.652099" lon="126.982953"><ele>645.4</ele><time>2026-05-17T10:38:42Z</time></trkpt>
      <trkpt lat="37.652164" lon="126.983097"><ele>640.1</ele><time>2026-05-17T10:39:04Z</time></trkpt>
      <trkpt lat="37.652229" lon="126.983240"><ele>630.1</ele><time>2026-05-17T10:39:26Z</time></trkpt>
      <trkpt lat="37.652297" lon="126.983382"><ele>624.3</ele><time>2026-05-17T10:39:48Z</time></trkpt>
      <trkpt lat="37.652366" lon="126.983523"><ele>615.3</ele><time>2026-05-17T10:40:10Z</time></trkpt>
      <trkpt lat="37.652436" lon="126.983662"><ele>607.6</ele><time>2026-05-17T10:40:32Z</time></trkpt>
      <trkpt lat="37.652508" lon="126.983799"><ele>600.4</ele><time>2026-05-17T10:40:54Z</time></trkpt>
      <trkpt lat="37.652582" lon="126.983935"><ele>590.6</ele><time>2026-05-17T10:41:16Z</time></trkpt>
      <trkpt lat="37.652656" lon="126.984069"><ele>584.7</ele><time>2026-05-17T10:41:38Z</time></trkpt>
      <trkpt lat="37.652733" lon="126.984202"><ele>574.1</ele><time>2026-05-17T10:42:00Z</time></trkpt>
      <trkpt lat="37.652810" lon="126.984333"><ele>567.9</ele><time>2026-05-17T10:42:22Z</time></trkpt>
      <trkpt lat="37.652889" lon="126.984462"><ele>558.3</ele><time>2026-05-17T10:42:44Z</time></trkpt>
      <trkpt lat="37.652970" lon="126.984590"><ele>550.3</ele><time>2026-05-17T10:43:06Z</time></trkpt>
      <trkpt lat="37.653051" lon="126.984716"><ele>542.6</ele><time>2026-05-17T10:43:28Z</time></trkpt>
      <trkpt lat="37.653135" lon="126.984840"><ele>532.7</ele><time>2026-05-17T10:43:50Z</time></trkpt>
      <trkpt lat="37.653219" lon="126.984963"><ele>526.4</ele><time>2026-05-17T10:44:12Z</time></trkpt>
      <trkpt lat="37.653305" lon="126.985084"><ele>515.7</ele><time>2026-05-17T10:44:34Z</time></trkpt>
      <trkpt lat="37.653392" lon="126.985203"><ele>509.4</ele><time>2026-05-17T10:44:56Z</time></trkpt>
      <trkpt lat="37.653480" lon="126.985320"><ele>499.6</ele><time>2026-05-17T10:45:18Z</time></trkpt>
      <trkpt lat="37.653570" lon="126.985435"><ele>491.7</ele><time>2026-05-17T10:45:40Z</time></trkpt>
      <trkpt lat="37.653660" lon="126.985548"><ele>483.9</ele><time>2026-05-17T10:46:02Z</time></trkpt>
      <trkpt lat="37.653752" lon="126.985660"><ele>474.1</ele><time>2026-05-17T10:46:24Z</time></trkpt>
      <trkpt lat="37.653845" lon="126.985769"><ele>468.0</ele><time>2026-05-17T10:46:46Z</time></trkpt>
      <trkpt lat="37.653940" lon="126.985877"><ele>457.4</ele><time>2026-05-17T10:47:08Z</time></trkpt>
      <trkpt lat="37.654035" lon="126.985982"><ele>451.4</ele><time>2026-05-17T10:47:30Z</time></trkpt>
      <trkpt lat="37.654131" lon="126.986086"><ele>441.8</ele><time>2026-05-17T10:47:52Z</time></trkpt>
      <trkpt lat="37.654229" lon="126.986187"><ele>434.3</ele><time>2026-05-17T10:48:14Z</time></trkpt>
      <trkpt lat="37.654328" lon="126.986287"><ele>426.8</ele><time>2026-05-17T10:48:36Z</time></trkpt>
      <trkpt lat="37.654428" lon="126.986384"><ele>417.5</ele><time>2026-05-17T10:48:58Z</time></trkpt>
      <trkpt lat="37.654528" lon="126.986479"><ele>411.8</ele><time>2026-05-17T10:49:20Z</time></trkpt>
      <trkpt lat="37.654630" lon="126.986572"><ele>401.8</ele><time>2026-05-17T10:49:42Z</time></trkpt>
      <trkpt lat="37.654733" lon="126.986663"><ele>396.4</ele><time>2026-05-17T10:50:04Z</time></trkpt>
      <trkpt lat="37.654837" lon="126.986752"><ele>387.4</ele><time>2026-05-17T10:50:26Z</time></trkpt>
      <trkpt lat="37.654941" lon="126.986838"><ele>380.7</ele><time>2026-05-17T10:50:48Z</time></trkpt>
      <trkpt lat="37.655047" lon="126.986923"><ele>373.8</ele><time>2026-05-17T10:51:10Z</time></trkpt>
      <trkpt lat="37.655153" lon="126.987005"><ele>365.4</ele><time>2026-05-17T10:51:32Z</time></trkpt>
      <trkpt lat="37.655261" lon="126.987085"><ele>360.5</ele><time>2026-05-17T10:51:54Z</time></trkpt>
      <trkpt lat="37.655369" lon="126.987162"><ele>351.4</ele><time>2026-05-17T10:52:16Z</time></trkpt>
      <trkpt lat="37.655478" lon="126.987237"><ele>346.9</ele><time>2026-05-17T10:52:38Z</time></trkpt>
      <trkpt lat="37.655587" lon="126.987310"><ele>338.8</ele><time>2026-05-17T10:53:00Z</time></trkpt>
      <trkpt lat="37.655698" lon="126.987381"><ele>333.2</ele><time>2026-05-17T10:53:22Z</time></trkpt>
      <trkpt lat="37.655809" lon="126.987449"><ele>327.3</ele><time>2026-05-17T10:53:44Z</time></trkpt>
      <trkpt lat="37.655921" lon="126.987515"><ele>320.1</ele><time>2026-05-17T10:54:06Z</time></trkpt>
      <trkpt lat="37.656034" lon="126.987579"><ele>316.2</ele><time>2026-05-17T10:54:28Z</time></trkpt>
      <trkpt lat="37.656147" lon="126.987640"><ele>308.3</ele><time>2026-05-17T10:54:50Z</time></trkpt>
      <trkpt lat="37.656261" lon="126.987699"><ele>305.1</ele><time>2026-05-17T10:55:12Z</time></trkpt>
      <trkpt lat="37.656376" lon="126.987755"><ele>298.1</ele><time>2026-05-17T10:55:34Z</time></trkpt>
      <trkpt lat="37.656491" lon="126.987809"><ele>293.9</ele><time>2026-05-17T10:55:56Z</time></trkpt>
      <trkpt lat="37.656607" lon="126.987861"><ele>289.2</ele><time>2026-05-17T10:56:18Z</time></trkpt>
      <trkpt lat="37.656723" lon="126.987910"><ele>283.5</ele><time>2026-05-17T10:56:40Z</time></trkpt>
      <trkpt lat="37.656840" lon="126.987957"><ele>280.9</ele><time>2026-05-17T10:57:02Z</time></trkpt>
      <trkpt lat="37.656957" lon="126.988001"><ele>274.4</ele><time>2026-05-17T10:57:24Z</time></trkpt>
      <trkpt lat="37.657075" lon="126.988043"><ele>272.7</ele><time>2026-05-17T10:57:46Z</time></trkpt>
      <trkpt lat="37.657193" lon="126.988082"><ele>267.1</ele><time>2026-05-17T10:58:08Z</time></trkpt>
      <trkpt lat="37.657312" lon="126.988119"><ele>264.6</ele><time>2026-05-17T10:58:30Z</time></trkpt>
      <trkpt lat="37.657431" lon="126.988153"><ele>261.3</ele><time>2026-05-17T10:58:52Z</time></trkpt>
      <trkpt lat="37.657550" lon="126.988185"><ele>257.2</ele><time>2026-05-17T10:59:14Z</time></trkpt>
      <trkpt lat="37.657670" lon="126.988214"><ele>256.2</ele><time>2026-05-17T10:59:36Z</time></trkpt>
      <trkpt lat="37.657790" lon="126.988241"><ele>251.3</ele><time>2026-05-17T10:59:58Z</time></trkpt>
      <trkpt lat="37.657910" lon="126.988265"><ele>251.2</ele><time>2026-05-17T11:00:20Z</time></trkpt>
      <trkpt lat="37.658031" lon="126.988287"><ele>247.2</ele><time>2026-05-17T11:00:42Z</time></trkpt>
      <trkpt lat="37.658151" lon="126.988306"><ele>246.5</ele><time>2026-05-17T11:01:04Z</time></trkpt>
      <trkpt lat="37.658272" lon="126.988323"><ele>244.7</ele><time>2026-05-17T11:01:26Z</time></trkpt>
      <trkpt lat="37.658393" lon="126.988337"><ele>242.5</ele><time>2026-05-17T11:01:48Z</time></trkpt>
      <trkpt lat="37.658514" lon="126.988348"><ele>243.1</ele><time>2026-05-17T11:02:10Z</time></trkpt>
      <trkpt lat="37.658636" lon="126.988357"><ele>239.9</ele><time>2026-05-17T11:02:32Z</time></trkpt>
      <trkpt lat="37.658757" lon="126.988363"><ele>241.6</ele><time>2026-05-17T11:02:54Z</time></trkpt>
      <trkpt lat="37.658879" lon="126.988367"><ele>239.3</ele><time>2026-05-17T11:03:16Z</time></trkpt>
      <trkpt lat="37.659000" lon="126.988369"><ele>240.4</ele><time>2026-05-17T11:03:38Z</time></trkpt>
    </trkseg>
  </trk>
</gpx>
