<?xml version="1.0" encoding="UTF-8"?>
<gpx version="1.1" creator="oh-trail-map sample" xmlns="http://www.topografix.com/GPX/1/1">
  <metadata><name>Jeongneung Valley Out-and-Back</name></metadata>
  <trk>
    <name>Jeongneung Valley Out-and-Back</name>
    <trkseg>
      <trkpt lat="37.645750" lon="126.988000"><ele>180.0</ele><time>2026-05-17T11:30:00Z</time></trkpt>
      <trkpt lat="37.645783" lon="126.988224"><ele>183.2</ele><time>2026-05-17T11:30:25Z</time></trkpt>
      <trkpt lat="37.645817" lon="126.988447"><ele>184.5</ele><time>2026-05-17T11:30:50Z</time></trkpt>
      <trkpt lat="37.645850" lon="126.988669"><ele>189.3</ele><time>2026-05-17T11:31:15Z</time></trkpt>
      <trkpt lat="37.645884" lon="126.988889"><ele>189.7</ele><time>2026-05-17T11:31:40Z</time></trkpt>
      <trkpt lat="37.645917" lon="126.989106"><ele>194.5</ele><time>2026-05-17T11:32:05Z</time></trkpt>
      <trkpt lat="37.645951" lon="126.989321"><ele>195.7</ele><time>2026-05-17T11:32:30Z</time></trkpt>
      <trkpt lat="37.645984" lon="126.989532"><ele>199.0</ele><time>2026-05-17T11:32:55Z</time></trkpt>
      <trkpt lat="37.646017" lon="126.989738"><ele>202.1</ele><time>2026-05-17T11:33:20Z</time></trkpt>
      <trkpt lat="37.646051" lon="126.989940"><ele>203.5</ele><time>2026-05-17T11:33:45Z</time></trkpt>
      <trkpt lat="37.646084" lon="126.990137"><ele>208.2</ele><time>2026-05-17T11:34:10Z</time></trkpt>
      <trkpt lat="37.646118" lon="126.990327"><ele>208.6</ele><time>2026-05-17T11:34:35Z</time></trkpt>
      <trkpt lat="37.646151" lon="126.990511"><ele>213.5</ele><time>2026-05-17T11:35:00Z</time></trkpt>
      <trkpt lat="37.646185" lon="126.990689"><ele>214.6</ele><time>2026-05-17T11:35:25Z</time></trkpt>
      <trkpt lat="37.646218" lon="126.990859"><ele>218.0</ele><time>2026-05-17T11:35:50Z</time></trkpt>
      <trkpt lat="37.646251" lon="126.991021"><ele>221.0</ele><time>2026-05-17T11:36:15Z</time></trkpt>
      <trkpt lat="37.646285" lon="126.991174"><ele>222.4</ele><time>2026-05-17T11:36:40Z</time></trkpt>
      <trkpt lat="37.646318" lon="126.991319"><ele>227.1</ele><time>2026-05-17T11:37:05Z</time></trkpt>
      <trkpt lat="37.646352" lon="126.991455"><ele>227.4</ele><time>2026-05-17T11:37:30Z</time></trkpt>
      <trkpt lat="37.646385" lon="126.991581"><ele>232.3</ele><time>2026-05-17T11:37:55Z</time></trkpt>
      <trkpt lat="37.646419" lon="126.991698"><ele>233.3</ele><time>2026-05-17T11:38:20Z</time></trkpt>
      <trkpt lat="37.646452" lon="126.991804"><ele>236.8</ele><time>2026-05-17T11:38:45Z</time></trkpt>
      <trkpt lat="37.646485" lon="126.991900"><ele>239.7</ele><time>2026-05-17T11:39:10Z</time></trkpt>
      <trkpt lat="37.646519" lon="126.991985"><ele>241.2</ele><time>2026-05-17T11:39:35Z</time></trkpt>
      <trkpt lat="37.646552" lon="126.992059"><ele>245.7</ele><time>2026-05-17T11:40:00Z</time></trkpt>
      <trkpt lat="37.646586" lon="126.992121"><ele>246.1</ele><time>2026-05-17T11:40:25Z</time></trkpt>
      <trkpt lat="37.646619" lon="126.992173"><ele>251.0</ele><time>2026-05-17T11:40:50Z</time></trkpt>
      <trkpt lat="37.646653" lon="126.992213"><ele>251.8</ele><time>2026-05-17T11:41:15Z</time></trkpt>
      <trkpt lat="37.646686" lon="126.992241"><ele>255.4</ele><time>2026-05-17T11:41:40Z</time></trkpt>
      <trkpt lat="37.646719" lon="126.992258"><ele>258.1</ele><time>2026-05-17T11:42:05Z</time></trkpt>
      <trkpt lat="37.646753" lon="126.992263"><ele>259.7</ele><time>2026-05-17T11:42:30Z</time></trkpt>
      <trkpt lat="37.646786" lon="126.992256"><ele>264.2</ele><time>2026-05-17T11:42:55Z</time></trkpt>
      <trkpt lat="37.646820" lon="126.992237"><ele>264.5</ele><time>2026-05-17T11:43:20Z</time></trkpt>
      <trkpt lat="37.646853" lon="126.992207"><ele>269.4</ele><time>2026-05-17T11:43:45Z</time></trkpt>
      <trkpt lat="37.646886" lon="126.992165"><ele>270.1</ele><time>2026-05-17T11:44:10Z</time></trkpt>
      <trkpt lat="37.646920" lon="126.992112"><ele>273.8</ele><time>2026-05-17T11:44:35Z</time></trkpt>
      <trkpt lat="37.646953" lon="126.992047"><ele>276.3</ele><time>2026-05-17T11:45:00Z</time></trkpt>
      <trkpt lat="37.646987" lon="126.991971"><ele>277.9</ele><time>2026-05-17T11:45:25Z</time></trkpt>
      <trkpt lat="37.647020" lon="126.991884"><ele>282.3</ele><time>2026-05-17T11:45:50Z</time></trkpt>
      <trkpt lat="37.647054" lon="126.991787"><ele>282.6</ele><time>2026-05-17T11:46:15Z</time></trkpt>
      <trkpt lat="37.647087" lon="126.991679"><ele>287.4</ele><time>2026-05-17T11:46:40Z</time></trkpt>
      <trkpt lat="37.647120" lon="126.991561"><ele>288.0</ele><time>2026-05-17T11:47:05Z</time></trkpt>
      <trkpt lat="37.647154" lon="126.991433"><ele>291.7</ele><time>2026-05-17T11:47:30Z</time></trkpt>
      <trkpt lat="37.647187" lon="126.991296"><ele>294.1</ele><time>2026-05-17T11:47:55Z</time></trkpt>
      <trkpt lat="37.647221" lon="126.991149"><ele>295.8</ele><time>2026-05-17T11:48:20Z</time></trkpt>
      <trkpt lat="37.647254" lon="126.990994"><ele>300.0</ele><time>2026-05-17T11:48:45Z</time></trkpt>
      <trkpt lat="37.647288" lon="126.990831"><ele>300.3</ele><time>2026-05-17T11:49:10Z</time></trkpt>
      <trkpt lat="37.647321" lon="126.990660"><ele>305.1</ele><time>2026-05-17T11:49:35Z</time></trkpt>
      <trkpt lat="37.647354" lon="126.990481"><ele>305.6</ele><time>2026-05-17T11:50:00Z</time></trkpt>
      <trkpt lat="37.647388" lon="126.990296"><ele>309.3</ele><time>2026-05-17T11:50:25Z</time></trkpt>
      <trkpt lat="37.647421" lon="126.990104"><ele>311.5</ele><time>2026-05-17T11:50:50Z</time></trkpt>
      <trkpt lat="37.647455" lon="126.989907"><ele>313.2</ele><time>2026-05-17T11:51:15Z</time></trkpt>
      <trkpt lat="37.647488" lon="126.989704"><ele>317.2</ele><time>2026-05-17T11:51:40Z</time></trkpt>
      <trkpt lat="37.647522" lon="126.989497"><ele>317.5</ele><time>2026-05-17T11:52:05Z</time></trkpt>
      <trkpt lat="37.647555" lon="126.989285"><ele>322.3</ele><time>2026-05-17T11:52:30Z</time></trkpt>
      <trkpt lat="37.647588" lon="126.989070"><ele>322.6</ele><time>2026-05-17T11:52:55Z</time></trkpt>
      <trkpt lat="37.647622" lon="126.988852"><ele>326.4</ele><time>2026-05-17T11:53:20Z</time></trkpt>
      <trkpt lat="37.647655" lon="126.988632"><ele>328.3</ele><time>2026-05-17T11:53:45Z</time></trkpt>
      <trkpt lat="37.647689" lon="126.988410"><ele>330.1</ele><time>2026-05-17T11:54:10Z</time></trkpt>
      <trkpt lat="37.647722" lon="126.988186"><ele>334.0</ele><time>2026-05-17T11:54:35Z</time></trkpt>
      <trkpt lat="37.647756" lon="126.987963"><ele>334.2</ele><time>2026-05-17T11:55:00Z</time></trkpt>
      <trkpt lat="37.647789" lon="126.987739"><ele>338.9</ele><time>2026-05-17T11:55:25Z</time></trkpt>
      <trkpt lat="37.647822" lon="126.987516"><ele>339.1</ele><time>2026-05-17T11:55:50Z</time></trkpt>
      <trkpt lat="37.647856" lon="126.987295"><ele>342.9</ele><time>2026-05-17T11:56:15Z</time></trkpt>
      <trkpt lat="37.647889" lon="126.987075"><ele>344.7</ele><time>2026-05-17T11:56:40Z</time></trkpt>
      <trkpt lat="37.647923" lon="126.986858"><ele>346.5</ele><time>2026-05-17T11:57:05Z</time></trkpt>
      <trkpt lat="37.647956" lon="126.986644"><ele>350.2</ele><time>2026-05-17T11:57:30Z</time></trkpt>
      <trkpt lat="37.647990" lon="126.986434"><ele>350.4</ele><time>2026-05-17T11:57:55Z</time></trkpt>
      <trkpt lat="37.648023" lon="126.986228"><ele>355.0</ele><time>2026-05-17T11:58:20Z</time></trkpt>
      <trkpt lat="37.648056" lon="126.986027"><ele>355.0</ele><time>2026-05-17T11:58:45Z</time></trkpt>
      <trkpt lat="37.648090" lon="126.985831"><ele>358.8</ele><time>2026-05-17T11:59:10Z</time></trkpt>
      <trkpt lat="37.648123" lon="126.985642"><ele>360.4</ele><time>2026-05-17T11:59:35Z</time></trkpt>
      <trkpt lat="37.648157" lon="126.985458"><ele>362.2</ele><time>2026-05-17T12:00:00Z</time></trkpt>
      <trkpt lat="37.648190" lon="126.985282"><ele>365.7</ele><time>2026-05-17T12:00:25Z</time></trkpt>
      <trkpt lat="37.648224" lon="126.985114"><ele>365.9</ele><time>2026-05-17T12:00:50Z</time></trkpt>
      <trkpt lat="37.648257" lon="126.984953"><ele>370.4</ele><time>2026-05-17T12:01:15Z</time></trkpt>
      <trkpt lat="37.648290" lon="126.984801"><ele>370.3</ele><time>2026-05-17T12:01:40Z</time></trkpt>
      <trkpt lat="37.648324" lon="126.984657"><ele>374.1</ele><time>2026-05-17T12:02:05Z</time></trkpt>
      <trkpt lat="37.648357" lon="126.984523"><ele>375.4</ele><time>2026-05-17T12:02:30Z</time></trkpt>
      <trkpt lat="37.648391" lon="126.984399"><ele>377.3</ele><time>2026-05-17T12:02:55Z</time></trkpt>
      <trkpt lat="37.648424" lon="126.984284"><ele>380.6</ele><time>2026-05-17T12:03:20Z</time></trkpt>
      <trkpt lat="37.648458" lon="126.984179"><ele>380.7</ele><time>2026-05-17T12:03:45Z</time></trkpt>
      <trkpt lat="37.648491" lon="126.984086"><ele>385.0</ele><time>2026-05-17T12:04:10Z</time></trkpt>
      <trkpt lat="37.648524" lon="126.984002"><ele>384.8</ele><time>2026-05-17T12:04:35Z</time></trkpt>
      <trkpt lat="37.648558" lon="126.983930"><ele>388.6</ele><time>2026-05-17T12:05:00Z</time></trkpt>
      <trkpt lat="37.648591" lon="126.983869"><ele>389.7</ele><time>2026-05-17T12:05:25Z</time></trkpt>
      <trkpt lat="37.648625" lon="126.983820"><ele>391.6</ele><time>2026-05-17T12:05:50Z</time></trkpt>
      <trkpt lat="37.648658" lon="126.983782"><ele>394.7</ele><time>2026-05-17T12:06:15Z</time></trkpt>
      <trkpt lat="37.648692" lon="126.983755"><ele>394.7</ele><time>2026-05-17T12:06:40Z</time></trkpt>
      <trkpt lat="37.648725" lon="126.983741"><ele>399.0</ele><time>2026-05-17T12:07:05Z</time></trkpt>
      <trkpt lat="37.648758" lon="126.983738"><ele>398.6</ele><time>2026-05-17T12:07:30Z</time></trkpt>
      <trkpt lat="37.648792" lon="126.983747"><ele>402.3</ele><time>2026-05-17T12:07:55Z</time></trkpt>
      <trkpt lat="37.648825" lon="126.983767"><ele>403.2</ele><time>2026-05-17T12:08:20Z</time></trkpt>
      <trkpt lat="37.648859" lon="126.983799"><ele>405.1</ele><time>2026-05-17T12:08:45Z</time></trkpt>
      <trkpt lat="37.648892" lon="126.983843"><ele>407.9</ele><time>2026-05-17T12:09:10Z</time></trkpt>
      <trkpt lat="37.648925" lon="126.983898"><ele>408.0</ele><time>2026-05-17T12:09:35Z</time></trkpt>
      <trkpt lat="37.648959" lon="126.983965"><ele>412.1</ele><time>2026-05-17T12:10:00Z</time></trkpt>
      <trkpt lat="37.648992" lon="126.984043"><ele>411.6</ele><time>2026-05-17T12:10:25Z</time></trkpt>
      <trkpt lat="37.649026" lon="126.984131"><ele>415.2</ele><time>2026-05-17T12:10:50Z</time></trkpt>
      <trkpt lat="37.649059" lon="126.984230"><ele>415.9</ele><time>2026-05-17T12:11:15Z</time></trkpt>
      <trkpt lat="37.649093" lon="126.984340"><ele>417.7</ele><time>2026-05-17T12:11:40Z</time></trkpt>
      <trkpt lat="37.649126" lon="126.984460"><ele>420.4</ele><time>2026-05-17T12:12:05Z</time></trkpt>
      <trkpt lat="37.649159" lon="126.984589"><ele>420.4</ele><time>2026-05-17T12:12:30Z</time></trkpt>
      <trkpt lat="37.649193" lon="126.984728"><ele>424.3</ele><time>2026-05-17T12:12:55Z</time></trkpt>
      <trkpt lat="37.649226" lon="126.984876"><ele>423.6</ele><time>2026-05-17T12:13:20Z</time></trkpt>
      <trkpt lat="37.649260" lon="126.985032"><ele>427.2</ele><time>2026-05-17T12:13:45Z</time></trkpt>
      <trkpt lat="37.649293" lon="126.985197"><ele>427.7</ele><time>2026-05-17T12:14:10Z</time></trkpt>
      <trkpt lat="37.649327" lon="126.985370"><ele>429.5</ele><time>2026-05-17T12:14:35Z</time></trkpt>
      <trkpt lat="37.649360" lon="126.985549"><ele>431.9</ele><time>2026-05-17T12:15:00Z</time></trkpt>
      <trkpt lat="37.649393" lon="126.985736"><ele>431.8</ele><time>2026-05-17T12:15:25Z</time></trkpt>
      <trkpt lat="37.649427" lon="126.985928"><ele>435.6</ele><time>2026-05-17T12:15:50Z</time></trkpt>
      <trkpt lat="37.649460" lon="126.986127"><ele>434.8</ele><time>2026-05-17T12:16:15Z</time></trkpt>
      <trkpt lat="37.649494" lon="126.986330"><ele>438.3</ele><time>2026-05-17T12:16:40Z</time></trkpt>
      <trkpt lat="37.649527" lon="126.986538"><ele>438.5</ele><time>2026-05-17T12:17:05Z</time></trkpt>
      <trkpt lat="37.649561" lon="126.986750"><ele>440.4</ele><time>2026-05-17T12:17:30Z</time></trkpt>
      <trkpt lat="37.649594" lon="126.986966"><ele>442.5</ele><time>2026-05-17T12:17:55Z</time></trkpt>
      <trkpt lat="37.649627" lon="126.987184"><ele>442.4</ele><time>2026-05-17T12:18:20Z</time></trkpt>
      <trkpt lat="37.649661" lon="126.987405"><ele>446.0</ele><time>2026-05-17T12:18:45Z</time></trkpt>
      <trkpt lat="37.649694" lon="126.987627"><ele>445.0</ele><time>2026-05-17T12:19:10Z</time></trkpt>
      <trkpt lat="37.649728" lon="126.987851"><ele>448.5</ele><time>2026-05-17T12:19:35Z</time></trkpt>
      <trkpt lat="37.649761" lon="126.988075"><ele>448.4</ele><time>2026-05-17T12:20:00Z</time></trkpt>
      <trkpt lat="37.649795" lon="126.988298"><ele>450.2</ele><time>2026-05-17T12:20:25Z</time></trkpt>
      <trkpt lat="37.649828" lon="126.988521"><ele>452.1</ele><time>2026-05-17T12:20:50Z</time></trkpt>
      <trkpt lat="37.649861" lon="126.988742"><ele>451.9</ele><time>2026-05-17T12:21:15Z</time></trkpt>
      <trkpt lat="37.649895" lon="126.988961"><ele>455.3</ele><time>2026-05-17T12:21:40Z</time></trkpt>
      <trkpt lat="37.649928" lon="126.989178"><ele>454.2</ele><time>2026-05-17T12:22:05Z</time></trkpt>
      <trkpt lat="37.649962" lon="126.989391"><ele>457.6</ele><time>2026-05-17T12:22:30Z</time></trkpt>
      <trkpt lat="37.649995" lon="126.989601"><ele>457.3</ele><time>2026-05-17T12:22:55Z</time></trkpt>
      <trkpt lat="37.650029" lon="126.989806"><ele>459.1</ele><time>2026-05-17T12:23:20Z</time></trkpt>
      <trkpt lat="37.650062" lon="126.990006"><ele>460.7</ele><time>2026-05-17T12:23:45Z</time></trkpt>
      <trkpt lat="37.650095" lon="126.990201"><ele>460.5</ele><time>2026-05-17T12:24:10Z</time></trkpt>
      <trkpt lat="37.650129" lon="126.990389"><ele>463.7</ele><time>2026-05-17T12:24:35Z</time></trkpt>
      <trkpt lat="37.650162" lon="126.990571"><ele>462.4</ele><time>2026-05-17T12:25:00Z</time></trkpt>
      <trkpt lat="37.650196" lon="126.990746"><ele>465.7</ele><time>2026-05-17T12:25:25Z</time></trkpt>
      <trkpt lat="37.650229" lon="126.990914"><ele>465.2</ele><time>2026-05-17T12:25:50Z</time></trkpt>
      <trkpt lat="37.650263" lon="126.991073"><ele>466.9</ele><time>2026-05-17T12:26:15Z</time></trkpt>
      <trkpt lat="37.650296" lon="126.991224"><ele>468.2</ele><time>2026-05-17T12:26:40Z</time></trkpt>
      <trkpt lat="37.650329" lon="126.991366"><ele>467.9</ele><time>2026-05-17T12:27:05Z</time></trkpt>
      <trkpt lat="37.650363" lon="126.991498"><ele>470.9</ele><time>2026-05-17T12:27:30Z</time></trkpt>
      <trkpt lat="37.650396" lon="126.991621"><ele>469.5</ele><time>2026-05-17T12:27:55Z</time></trkpt>
      <trkpt lat="37.650430" lon="126.991734"><ele>472.7</ele><time>2026-05-17T12:28:20Z</time></trkpt>
      <trkpt lat="37.650463" lon="126.991837"><ele>471.9</ele><time>2026-05-17T12:28:45Z</time></trkpt>
      <trkpt lat="37.650497" lon="126.991929"><ele>473.6</ele><time>2026-05-17T12:29:10Z</time></trkpt>
      <trkpt lat="37.650530" lon="126.992010"><ele>474.7</ele><time>2026-05-17T12:29:35Z</time></trkpt>
      <trkpt lat="37.650563" lon="126.992081"><ele>474.3</ele><time>2026-05-17T12:30:00Z</time></trkpt>
      <trkpt lat="37.650597" lon="126.992140"><ele>477.1</ele><time>2026-05-17T12:30:25Z</time></trkpt>
      <trkpt lat="37.650630" lon="126.992187"><ele>475.6</ele><time>2026-05-17T12:30:50Z</time></trkpt>
      <trkpt lat="37.650664" lon="126.992223"><ele>478.6</ele><time>2026-05-17T12:31:15Z</time></trkpt>
      <trkpt lat="37.650697" lon="126.992248"><ele>477.6</ele><time>2026-05-17T12:31:40Z</time></trkpt>
      <trkpt lat="37.650731" lon="126.992261"><ele>479.2</ele><time>2026-05-17T12:32:05Z</time></trkpt>
      <trkpt lat="37.650764" lon="126.992262"><ele>480.0</ele><time>2026-05-17T12:32:30Z</time></trkpt>
      <trkpt lat="37.650797" lon="126.992251"><ele>479.6</ele><time>2026-05-17T12:32:55Z</time></trkpt>
      <trkpt lat="37.650831" lon="126.992228"><ele>482.2</ele><time>2026-05-17T12:33:20Z</time></trkpt>
      <trkpt lat="37.650864" lon="126.992194"><ele>480.5</ele><time>2026-05-17T12:33:45Z</time></trkpt>
      <trkpt lat="37.650898" lon="126.992148"><ele>483.4</ele><time>2026-05-17T12:34:10Z</time></trkpt>
      <trkpt lat="37.650931" lon="126.992091"><ele>482.2</ele><time>2026-05-17T12:34:35Z</time></trkpt>
      <trkpt lat="37.650964" lon="126.992023"><ele>483.7</ele><time>2026-05-17T12:35:00Z</time></trkpt>
      <trkpt lat="37.650998" lon="126.991943"><ele>484.3</ele><time>2026-05-17T12:35:25Z</time></trkpt>
      <trkpt lat="37.651031" lon="126.991853"><ele>483.8</ele><time>2026-05-17T12:35:50Z</time></trkpt>
      <trkpt lat="37.651065" lon="126.991752"><ele>486.1</ele><time>2026-05-17T12:36:15Z</time></trkpt>
      <trkpt lat="37.651098" lon="126.991641"><ele>484.3</ele><time>2026-05-17T12:36:40Z</time></trkpt>
      <trkpt lat="37.651132" lon="126.991519"><ele>487.0</ele><time>2026-05-17T12:37:05Z</time></trkpt>
      <trkpt lat="37.651165" lon="126.991388"><ele>485.6</ele><time>2026-05-17T12:37:30Z</time></trkpt>
      <trkpt lat="37.651198" lon="126.991248"><ele>487.1</ele><time>2026-05-17T12:37:55Z</time></trkpt>
      <trkpt lat="37.651232" lon="126.991099"><ele>487.3</ele><time>2026-05-17T12:38:20Z</time></trkpt>
      <trkpt lat="37.651265" lon="126.990941"><ele>486.8</ele><time>2026-05-17T12:38:45Z</time></trkpt>
      <trkpt lat="37.651299" lon="126.990775"><ele>488.9</ele><time>2026-05-17T12:39:10Z</time></trkpt>
      <trkpt lat="37.651332" lon="126.990601"><ele>487.0</ele><time>2026-05-17T12:39:35Z</time></trkpt>
      <trkpt lat="37.651366" lon="126.990420"><ele>489.6</ele><time>2026-05-17T12:40:00Z</time></trkpt>
      <trkpt lat="37.651399" lon="126.990233"><ele>487.9</ele><time>2026-05-17T12:40:25Z</time></trkpt>
      <trkpt lat="37.651432" lon="126.990039"><ele>489.3</ele><time>2026-05-17T12:40:50Z</time></trkpt>
      <trkpt lat="37.651466" lon="126.989840"><ele>489.3</ele><time>2026-05-17T12:41:15Z</time></trkpt>
      <trkpt lat="37.651499" lon="126.989636"><ele>488.7</ele><time>2026-05-17T12:41:40Z</time></trkpt>
      <trkpt lat="37.651533" lon="126.989427"><ele>490.5</ele><time>2026-05-17T12:42:05Z</time></trkpt>
      <trkpt lat="37.651566" lon="126.989214"><ele>488.5</ele><time>2026-05-17T12:42:30Z</time></trkpt>
      <trkpt lat="37.651600" lon="126.988998"><ele>490.9</ele><time>2026-05-17T12:42:55Z</time></trkpt>
      <trkpt lat="37.651633" lon="126.988779"><ele>489.0</ele><time>2026-05-17T12:43:20Z</time></trkpt>
      <trkpt lat="37.651666" lon="126.988558"><ele>490.4</ele><time>2026-05-17T12:43:45Z</time></trkpt>
      <trkpt lat="37.651700" lon="126.988335"><ele>490.0</ele><time>2026-05-17T12:44:10Z</time></trkpt>
      <trkpt lat="37.651733" lon="126.988112"><ele>489.4</ele><time>2026-05-17T12:44:35Z</time></trkpt>
      <trkpt lat="37.651767" lon="126.987888"><ele>491.0</ele><time>2026-05-17T12:45:00Z</time></trkpt>
      <trkpt lat="37.651800" lon="126.987665"><ele>488.8</ele><time>2026-05-17T12:45:25Z</time></trkpt>
      <trkpt lat="37.651834" lon="126.987442"><ele>491.1</ele><time>2026-05-17T12:45:50Z</time></trkpt>
      <trkpt lat="37.651867" lon="126.987221"><ele>488.9</ele><time>2026-05-17T12:46:15Z</time></trkpt>
      <trkpt lat="37.651900" lon="126.987002"><ele>490.3</ele><time>2026-05-17T12:46:40Z</time></trkpt>
      <trkpt lat="37.651934" lon="126.986786"><ele>489.7</ele><time>2026-05-17T12:47:05Z</time></trkpt>
      <trkpt lat="37.651967" lon="126.986573"><ele>489.0</ele><time>2026-05-17T12:47:30Z</time></trkpt>
      <trkpt lat="37.652001" lon="126.986364"><ele>490.3</ele><time>2026-05-17T12:47:55Z</time></trkpt>
      <trkpt lat="37.652034" lon="126.986160"><ele>488.0</ele><time>2026-05-17T12:48:20Z</time></trkpt>
      <trkpt lat="37.652068" lon="126.985961"><ele>490.1</ele><time>2026-05-17T12:48:45Z</time></trkpt>
      <trkpt lat="37.652101" lon="126.985767"><ele>487.7</ele><time>2026-05-17T12:49:10Z</time></trkpt>
      <trkpt lat="37.652134" lon="126.985580"><ele>489.0</ele><time>2026-05-17T12:49:35Z</time></trkpt>
      <trkpt lat="37.652168" lon="126.985399"><ele>488.1</ele><time>2026-05-17T12:50:00Z</time></trkpt>
      <trkpt lat="37.652201" lon="126.985225"><ele>487.4</ele><time>2026-05-17T12:50:25Z</time></trkpt>
      <trkpt lat="37.652235" lon="126.985059"><ele>488.4</ele><time>2026-05-17T12:50:50Z</time></trkpt>
      <trkpt lat="37.652268" lon="126.984901"><ele>486.0</ele><time>2026-05-17T12:51:15Z</time></trkpt>
      <trkpt lat="37.652302" lon="126.984752"><ele>488.0</ele><time>2026-05-17T12:51:40Z</time></trkpt>
      <trkpt lat="37.652335" lon="126.984612"><ele>485.4</ele><time>2026-05-17T12:52:05Z</time></trkpt>
      <trkpt lat="37.652368" lon="126.984481"><ele>486.6</ele><time>2026-05-17T12:52:30Z</time></trkpt>
      <trkpt lat="37.652402" lon="126.984359"><ele>485.4</ele><time>2026-05-17T12:52:55Z</time></trkpt>
      <trkpt lat="37.652435" lon="126.984248"><ele>484.6</ele><time>2026-05-17T12:53:20Z</time></trkpt>
      <trkpt lat="37.652469" lon="126.984147"><ele>485.4</ele><time>2026-05-17T12:53:45Z</time></trkpt>
      <trkpt lat="37.652502" lon="126.984057"><ele>482.9</ele><time>2026-05-17T12:54:10Z</time></trkpt>
      <trkpt lat="37.652536" lon="126.983977"><ele>484.7</ele><time>2026-05-17T12:54:35Z</time></trkpt>
      <trkpt lat="37.652569" lon="126.983909"><ele>481.9</ele><time>2026-05-17T12:55:00Z</time></trkpt>
      <trkpt lat="37.652602" lon="126.983852"><ele>483.0</ele><time>2026-05-17T12:55:25Z</time></trkpt>
      <trkpt lat="37.652636" lon="126.983806"><ele>481.5</ele><time>2026-05-17T12:55:50Z</time></trkpt>
      <trkpt lat="37.652669" lon="126.983772"><ele>480.7</ele><time>2026-05-17T12:56:15Z</time></trkpt>
      <trkpt lat="37.652703" lon="126.983749"><ele>481.2</ele><time>2026-05-17T12:56:40Z</time></trkpt>
      <trkpt lat="37.652736" lon="126.983738"><ele>478.6</ele><time>2026-05-17T12:57:05Z</time></trkpt>
      <trkpt lat="37.652769" lon="126.983739"><ele>480.2</ele><time>2026-05-17T12:57:30Z</time></trkpt>
      <trkpt lat="37.652803" lon="126.983752"><ele>477.2</ele><time>2026-05-17T12:57:55Z</time></trkpt>
      <trkpt lat="37.652836" lon="126.983777"><ele>478.3</ele><time>2026-05-17T12:58:20Z</time></trkpt>
      <trkpt lat="37.652870" lon="126.983813"><ele>476.5</ele><time>2026-05-17T12:58:45Z</time></trkpt>
      <trkpt lat="37.652903" lon="126.983860"><ele>475.7</ele><time>2026-05-17T12:59:10Z</time></trkpt>
      <trkpt lat="37.652937" lon="126.983919"><ele>475.9</ele><time>2026-05-17T12:59:35Z</time></trkpt>
      <trkpt lat="37.652970" lon="126.983990"><ele>473.2</ele><time>2026-05-17T13:00:00Z</time></trkpt>
      <trkpt lat="37.653003" lon="126.984071"><ele>474.7</ele><time>2026-05-17T13:00:25Z</time></trkpt>
      <trkpt lat="37.653037" lon="126.984163"><ele>471.5</ele><time>2026-05-17T13:00:50Z</time></trkpt>
      <trkpt lat="37.653070" lon="126.984266"><ele>472.4</ele><time>2026-05-17T13:01:15Z</time></trkpt>
      <trkpt lat="37.653104" lon="126.984379"><ele>470.4</ele><time>2026-05-17T13:01:40Z</time></trkpt>
      <trkpt lat="37.653137" lon="126.984502"><ele>469.5</ele><time>2026-05-17T13:02:05Z</time></trkpt>
      <trkpt lat="37.653171" lon="126.984634"><ele>469.5</ele><time>2026-05-17T13:02:30Z</time></trkpt>
      <trkpt lat="37.653204" lon="126.984776"><ele>466.7</ele><time>2026-05-17T13:02:55Z</time></trkpt>
      <trkpt lat="37.653237" lon="126.984927"><ele>468.0</ele><time>2026-05-17T13:03:20Z</time></trkpt>
      <trkpt lat="37.653271" lon="126.985086"><ele>464.6</ele><time>2026-05-17T13:03:45Z</time></trkpt>
      <trkpt lat="37.653304" lon="126.985254"><ele>465.5</ele><time>2026-05-17T13:04:10Z</time></trkpt>
      <trkpt lat="37.653338" lon="126.985429"><ele>463.3</ele><time>2026-05-17T13:04:35Z</time></trkpt>
      <trkpt lat="37.653371" lon="126.985611"><ele>462.3</ele><time>2026-05-17T13:05:00Z</time></trkpt>
      <trkpt lat="37.653405" lon="126.985799"><ele>462.0</ele><time>2026-05-17T13:05:25Z</time></trkpt>
      <trkpt lat="37.653438" lon="126.985994"><ele>459.2</ele><time>2026-05-17T13:05:50Z</time></trkpt>
      <trkpt lat="37.653471" lon="126.986194"><ele>460.2</ele><time>2026-05-17T13:06:15Z</time></trkpt>
      <trkpt lat="37.653505" lon="126.986399"><ele>456.7</ele><time>2026-05-17T13:06:40Z</time></trkpt>
      <trkpt lat="37.653538" lon="126.986609"><ele>457.5</ele><time>2026-05-17T13:07:05Z</time></trkpt>
      <trkpt lat="37.653572" lon="126.986822"><ele>455.0</ele><time>2026-05-17T13:07:30Z</time></trkpt>
      <trkpt lat="37.653605" lon="126.987039"><ele>454.0</ele><time>2026-05-17T13:07:55Z</time></trkpt>
      <trkpt lat="37.653639" lon="126.987258"><ele>453.5</ele><time>2026-05-17T13:08:20Z</time></trkpt>
      <trkpt lat="37.653672" lon="126.987479"><ele>450.6</ele><time>2026-05-17T13:08:45Z</time></trkpt>
      <trkpt lat="37.653705" lon="126.987702"><ele>451.4</ele><time>2026-05-17T13:09:10Z</time></trkpt>
      <trkpt lat="37.653739" lon="126.987925"><ele>447.8</ele><time>2026-05-17T13:09:35Z</time></trkpt>
      <trkpt lat="37.653772" lon="126.988149"><ele>448.4</ele><time>2026-05-17T13:10:00Z</time></trkpt>
      <trkpt lat="37.653806" lon="126.988373"><ele>445.7</ele><time>2026-05-17T13:10:25Z</time></trkpt>
      <trkpt lat="37.653839" lon="126.988595"><ele>444.7</ele><time>2026-05-17T13:10:50Z</time></trkpt>
      <trkpt lat="37.653873" lon="126.988816"><ele>443.9</ele><time>2026-05-17T13:11:15Z</time></trkpt>
      <trkpt lat="37.653906" lon="126.989034"><ele>441.0</ele><time>2026-05-17T13:11:40Z</time></trkpt>
      <trkpt lat="37.653939" lon="126.989250"><ele>441.6</ele><time>2026-05-17T13:12:05Z</time></trkpt>
      <trkpt lat="37.653973" lon="126.989462"><ele>437.8</ele><time>2026-05-17T13:12:30Z</time></trkpt>
      <trkpt lat="37.654006" lon="126.989670"><ele>438.4</ele><time>2026-05-17T13:12:55Z</time></trkpt>
      <trkpt lat="37.654040" lon="126.989873"><ele>435.4</ele><time>2026-05-17T13:13:20Z</time></trkpt>
      <trkpt lat="37.654073" lon="126.990072"><ele>434.4</ele><time>2026-05-17T13:13:45Z</time></trkpt>
      <trkpt lat="37.654107" lon="126.990264"><ele>433.4</ele><time>2026-05-17T13:14:10Z</time></trkpt>
      <trkpt lat="37.654140" lon="126.990451"><ele>430.3</ele><time>2026-05-17T13:14:35Z</time></trkpt>
      <trkpt lat="37.654173" lon="126.990630"><ele>430.8</ele><time>2026-05-17T13:15:00Z</time></trkpt>
      <trkpt lat="37.654207" lon="126.990803"><ele>426.9</ele><time>2026-05-17T13:15:25Z</time></trkpt>
      <trkpt lat="37.654240" lon="126.990968"><ele>427.4</ele><time>2026-05-17T13:15:50Z</time></trkpt>
      <trkpt lat="37.654274" lon="126.991124"><ele>424.2</ele><time>2026-05-17T13:16:15Z</time></trkpt>
      <trkpt lat="37.654307" lon="126.991272"><ele>423.2</ele><time>2026-05-17T13:16:40Z</time></trkpt>
      <trkpt lat="37.654341" lon="126.991411"><ele>421.9</ele><time>2026-05-17T13:17:05Z</time></trkpt>
      <trkpt lat="37.654374" lon="126.991540"><ele>418.8</ele><time>2026-05-17T13:17:30Z</time></trkpt>
      <trkpt lat="37.654407" lon="126.991660"><ele>419.1</ele><time>2026-05-17T13:17:55Z</time></trkpt>
      <trkpt lat="37.654441" lon="126.991770"><ele>415.0</ele><time>2026-05-17T13:18:20Z</time></trkpt>
      <trkpt lat="37.654474" lon="126.991869"><ele>415.4</ele><time>2026-05-17T13:18:45Z</time></trkpt>
      <trkpt lat="37.654508" lon="126.991957"><ele>412.0</ele><time>2026-05-17T13:19:10Z</time></trkpt>
      <trkpt lat="37.654541" lon="126.992035"><ele>411.0</ele><time>2026-05-17T13:19:35Z</time></trkpt>
      <trkpt lat="37.654575" lon="126.992102"><ele>409.4</ele><time>2026-05-17T13:20:00Z</time></trkpt>
      <trkpt lat="37.654608" lon="126.992157"><ele>406.4</ele><time>2026-05-17T13:20:25Z</time></trkpt>
      <trkpt lat="37.654641" lon="126.992201"><ele>406.5</ele><time>2026-05-17T13:20:50Z</time></trkpt>
      <trkpt lat="37.654675" lon="126.992233"><ele>402.3</ele><time>2026-05-17T13:21:15Z</time></trkpt>
      <trkpt lat="37.654708" lon="126.992253"><ele>402.6</ele><time>2026-05-17T13:21:40Z</time></trkpt>
      <trkpt lat="37.654742" lon="126.992262"><ele>399.0</ele><time>2026-05-17T13:22:05Z</time></trkpt>
      <trkpt lat="37.654775" lon="126.992259"><ele>397.9</ele><time>2026-05-17T13:22:30Z</time></trkpt>
      <trkpt lat="37.654808" lon="126.992245"><ele>396.2</ele><time>2026-05-17T13:22:55Z</time></trkpt>
      <trkpt lat="37.654842" lon="126.992218"><ele>393.1</ele><time>2026-05-17T13:23:20Z</time></trkpt>
      <trkpt lat="37.654875" lon="126.992180"><ele>393.0</ele><time>2026-05-17T13:23:45Z</time></trkpt>
      <trkpt lat="37.654909" lon="126.992131"><ele>388.7</ele><time>2026-05-17T13:24:10Z</time></trkpt>
      <trkpt lat="37.654942" lon="126.992070"><ele>389.0</ele><time>2026-05-17T13:24:35Z</time></trkpt>
      <trkpt lat="37.654976" lon="126.991998"><ele>385.2</ele><time>2026-05-17T13:25:00Z</time></trkpt>
      <trkpt lat="37.655009" lon="126.991914"><ele>384.1</ele><time>2026-05-17T13:25:25Z</time></trkpt>
      <trkpt lat="37.655042" lon="126.991821"><ele>382.1</ele><time>2026-05-17T13:25:50Z</time></trkpt>
      <trkpt lat="37.655076" lon="126.991716"><ele>379.0</ele><time>2026-05-17T13:26:15Z</time></trkpt>
      <trkpt lat="37.655109" lon="126.991601"><ele>378.7</ele><time>2026-05-17T13:26:40Z</time></trkpt>
      <trkpt lat="37.655143" lon="126.991477"><ele>374.3</ele><time>2026-05-17T13:27:05Z</time></trkpt>
      <trkpt lat="37.655176" lon="126.991343"><ele>374.5</ele><time>2026-05-17T13:27:30Z</time></trkpt>
      <trkpt lat="37.655210" lon="126.991199"><ele>370.5</ele><time>2026-05-17T13:27:55Z</time></trkpt>
      <trkpt lat="37.655243" lon="126.991047"><ele>369.5</ele><time>2026-05-17T13:28:20Z</time></trkpt>
      <trkpt lat="37.655276" lon="126.990886"><ele>367.2</ele><time>2026-05-17T13:28:45Z</time></trkpt>
      <trkpt lat="37.655310" lon="126.990718"><ele>364.1</ele><time>2026-05-17T13:29:10Z</time></trkpt>
      <trkpt lat="37.655343" lon="126.990542"><ele>363.7</ele><time>2026-05-17T13:29:35Z</time></trkpt>
      <trkpt lat="37.655377" lon="126.990358"><ele>359.3</ele><time>2026-05-17T13:30:00Z</time></trkpt>
      <trkpt lat="37.655410" lon="126.990169"><ele>359.4</ele><time>2026-05-17T13:30:25Z</time></trkpt>
      <trkpt lat="37.655444" lon="126.989973"><ele>355.2</ele><time>2026-05-17T13:30:50Z</time></trkpt>
      <trkpt lat="37.655477" lon="126.989772"><ele>354.1</ele><time>2026-05-17T13:31:15Z</time></trkpt>
      <trkpt lat="37.655510" lon="126.989566"><ele>351.7</ele><time>2026-05-17T13:31:40Z</time></trkpt>
      <trkpt lat="37.655544" lon="126.989356"><ele>348.6</ele><time>2026-05-17T13:32:05Z</time></trkpt>
      <trkpt lat="37.655577" lon="126.989142"><ele>348.0</ele><time>2026-05-17T13:32:30Z</time></trkpt>
      <trkpt lat="37.655611" lon="126.988925"><ele>343.5</ele><time>2026-05-17T13:32:55Z</time></trkpt>
      <trkpt lat="37.655644" lon="126.988705"><ele>343.5</ele><time>2026-05-17T13:33:20Z</time></trkpt>
      <trkpt lat="37.655678" lon="126.988484"><ele>339.2</ele><time>2026-05-17T13:33:45Z</time></trkpt>
      <trkpt lat="37.655711" lon="126.988261"><ele>338.1</ele><time>2026-05-17T13:34:10Z</time></trkpt>
      <trkpt lat="37.655744" lon="126.988037"><ele>335.5</ele><time>2026-05-17T13:34:35Z</time></trkpt>
      <trkpt lat="37.655778" lon="126.987814"><ele>332.4</ele><time>2026-05-17T13:35:00Z</time></trkpt>
      <trkpt lat="37.655811" lon="126.987590"><ele>331.7</ele><time>2026-05-17T13:35:25Z</time></trkpt>
      <trkpt lat="37.655845" lon="126.987368"><ele>327.1</ele><time>2026-05-17T13:35:50Z</time></trkpt>
      <trkpt lat="37.655878" lon="126.987148"><ele>327.1</ele><time>2026-05-17T13:36:15Z</time></trkpt>
      <trkpt lat="37.655912" lon="126.986930"><ele>322.6</ele><time>2026-05-17T13:36:40Z</time></trkpt>
      <trkpt lat="37.655945" lon="126.986715"><ele>321.6</ele><time>2026-05-17T13:37:05Z</time></trkpt>
      <trkpt lat="37.655978" lon="126.986503"><ele>318.7</ele><time>2026-05-17T13:37:30Z</time></trkpt>
      <trkpt lat="37.656012" lon="126.986296"><ele>315.7</ele><time>2026-05-17T13:37:55Z</time></trkpt>
      <trkpt lat="37.656045" lon="126.986093"><ele>314.8</ele><time>2026-05-17T13:38:20Z</time></trkpt>
      <trkpt lat="37.656079" lon="126.985896"><ele>310.2</ele><time>2026-05-17T13:38:45Z</time></trkpt>
      <trkpt lat="37.656112" lon="126.985704"><ele>310.1</ele><time>2026-05-17T13:39:10Z</time></trkpt>
      <trkpt lat="37.656146" lon="126.985519"><ele>305.5</ele><time>2026-05-17T13:39:35Z</time></trkpt>
      <trkpt lat="37.656179" lon="126.985340"><ele>304.5</ele><time>2026-05-17T13:40:00Z</time></trkpt>
      <trkpt lat="37.656212" lon="126.985169"><ele>301.4</ele><time>2026-05-17T13:40:25Z</time></trkpt>
      <trkpt lat="37.656246" lon="126.985006"><ele>298.4</ele><time>2026-05-17T13:40:50Z</time></trkpt>
      <trkpt lat="37.656279" lon="126.984851"><ele>297.4</ele><time>2026-05-17T13:41:15Z</time></trkpt>
      <trkpt lat="37.656313" lon="126.984704"><ele>292.8</ele><time>2026-05-17T13:41:40Z</time></trkpt>
      <trkpt lat="37.656346" lon="126.984567"><ele>292.6</ele><time>2026-05-17T13:42:05Z</time></trkpt>
      <trkpt lat="37.656380" lon="126.984439"><ele>287.9</ele><time>2026-05-17T13:42:30Z</time></trkpt>
      <trkpt lat="37.656413" lon="126.984321"><ele>286.9</ele><time>2026-05-17T13:42:55Z</time></trkpt>
      <trkpt lat="37.656446" lon="126.984213"><ele>283.7</ele><time>2026-05-17T13:43:20Z</time></trkpt>
      <trkpt lat="37.656480" lon="126.984116"><ele>280.8</ele><time>2026-05-17T13:43:45Z</time></trkpt>
      <trkpt lat="37.656513" lon="126.984029"><ele>279.5</ele><time>2026-05-17T13:44:10Z</time></trkpt>
      <trkpt lat="37.656547" lon="126.983953"><ele>274.9</ele><time>2026-05-17T13:44:35Z</time></trkpt>
      <trkpt lat="37.656580" lon="126.983888"><ele>274.7</ele><time>2026-05-17T13:45:00Z</time></trkpt>
      <trkpt lat="37.656614" lon="126.983835"><ele>269.9</ele><time>2026-05-17T13:45:25Z</time></trkpt>
      <trkpt lat="37.656647" lon="126.983793"><ele>268.9</ele><time>2026-05-17T13:45:50Z</time></trkpt>
      <trkpt lat="37.656680" lon="126.983763"><ele>265.5</ele><time>2026-05-17T13:46:15Z</time></trkpt>
      <trkpt lat="37.656714" lon="126.983744"><ele>262.7</ele><time>2026-05-17T13:46:40Z</time></trkpt>
      <trkpt lat="37.656747" lon="126.983737"><ele>261.3</ele><time>2026-05-17T13:47:05Z</time></trkpt>
      <trkpt lat="37.656781" lon="126.983742"><ele>256.7</ele><time>2026-05-17T13:47:30Z</time></trkpt>
      <trkpt lat="37.656814" lon="126.983759"><ele>256.4</ele><time>2026-05-17T13:47:55Z</time></trkpt>
      <trkpt lat="37.656847" lon="126.983787"><ele>251.5</ele><time>2026-05-17T13:48:20Z</time></trkpt>
      <trkpt lat="37.656881" lon="126.983827"><ele>250.6</ele><time>2026-05-17T13:48:45Z</time></trkpt>
      <trkpt lat="37.656914" lon="126.983879"><ele>247.1</ele><time>2026-05-17T13:49:10Z</time></trkpt>
      <trkpt lat="37.656948" lon="126.983941"><ele>244.3</ele><time>2026-05-17T13:49:35Z</time></trkpt>
      <trkpt lat="37.656981" lon="126.984015"><ele>242.8</ele><time>2026-05-17T13:50:00Z</time></trkpt>
      <trkpt lat="37.657015" lon="126.984100"><ele>238.2</ele><time>2026-05-17T13:50:25Z</time></trkpt>
      <trkpt lat="37.657048" lon="126.984196"><ele>237.8</ele><time>2026-05-17T13:50:50Z</time></trkpt>
      <trkpt lat="37.657081" lon="126.984302"><ele>232.9</ele><time>2026-05-17T13:51:15Z</time></trkpt>
      <trkpt lat="37.657115" lon="126.984419"><ele>232.0</ele><time>2026-05-17T13:51:40Z</time></trkpt>
      <trkpt lat="37.657148" lon="126.984545"><ele>228.4</ele><time>2026-05-17T13:52:05Z</time></trkpt>
      <trkpt lat="37.657182" lon="126.984681"><ele>225.7</ele><time>2026-05-17T13:52:30Z</time></trkpt>
      <trkpt lat="37.657215" lon="126.984826"><ele>224.0</ele><time>2026-05-17T13:52:55Z</time></trkpt>
      <trkpt lat="37.657249" lon="126.984979"><ele>219.5</ele><time>2026-05-17T13:53:20Z</time></trkpt>
      <trkpt lat="37.657282" lon="126.985141"><ele>219.1</ele><time>2026-05-17T13:53:45Z</time></trkpt>
      <trkpt lat="37.657315" lon="126.985311"><ele>214.1</ele><time>2026-05-17T13:54:10Z</time></trkpt>
      <trkpt lat="37.657349" lon="126.985489"><ele>213.3</ele><time>2026-05-17T13:54:35Z</time></trkpt>
      <trkpt lat="37.657382" lon="126.985673"><ele>209.5</ele><time>2026-05-17T13:55:00Z</time></trkpt>
      <trkpt lat="37.657416" lon="126.985863"><ele>206.9</ele><time>2026-05-17T13:55:25Z</time></trkpt>
      <trkpt lat="37.657449" lon="126.986060"><ele>205.1</ele><time>2026-05-17T13:55:50Z</time></trkpt>
      <trkpt lat="37.657483" lon="126.986262"><ele>200.6</ele><time>2026-05-17T13:56:15Z</time></trkpt>
      <trkpt lat="37.657516" lon="126.986468"><ele>200.2</ele><time>2026-05-17T13:56:40Z</time></trkpt>
      <trkpt lat="37.657549" lon="126.986679"><ele>195.2</ele><time>2026-05-17T13:57:05Z</time></trkpt>
      <trkpt lat="37.657583" lon="126.986894"><ele>194.4</ele><time>2026-05-17T13:57:30Z</time></trkpt>
      <trkpt lat="37.657616" lon="126.987111"><ele>190.5</ele><time>2026-05-17T13:57:55Z</time></trkpt>
      <trkpt lat="37.657650" lon="126.987331"><ele>188.0</ele><time>2026-05-17T13:58:20Z</time></trkpt>
      <trkpt lat="37.657683" lon="126.987553"><ele>186.1</ele><time>2026-05-17T13:58:45Z</time></trkpt>
      <trkpt lat="37.657717" lon="126.987776"><ele>181.7</ele><time>2026-05-17T13:59:10Z</time></trkpt>
      <trkpt lat="37.657750" lon="126.988000"><ele>181.2</ele><time>2026-05-17T13:59:35Z</time></trkpt>
    </trkseg>
  </trk>
</gpx>
